{"type":"FeatureCollection","name":"daerah_lembangan_langat","features":[{"type":"Feature","properties":{"name":"Sepang","admin_level":6,"osm_id":10743315},"geometry":{"type":"MultiPolygon","coordinates":[[[[101.57567,2.97967],[101.57795,2.97962],[101.58004,2.97991],[101.58556,2.98023],[101.58716,2.98032],[101.59435,2.98027],[101.59822,2.98002],[101.6006,2.9802],[101.60247,2.9803],[101.60522,2.9804],[101.61174,2.98037],[101.61397,2.98039],[101.61813,2.98035],[101.62598,2.98016],[101.633,2.9803],[101.63378,2.98003],[101.63511,2.98004],[101.64143,2.98024],[101.6471,2.98027],[101.65896,2.98041],[101.68028,2.98088],[101.69332,2.98181],[101.70571,2.98297],[101.7095,2.98335],[101.71359,2.98374],[101.71313,2.98693],[101.71695,2.98782],[101.71751,2.9886],[101.71821,2.98921],[101.7188,2.99149],[101.71897,2.99302],[101.7192,2.99635],[101.719,2.99763],[101.71873,3.00002],[101.71844,3.00179],[101.71837,3.00288],[101.71826,3.00322],[101.71804,3.00323],[101.71807,3.00375],[101.71836,3.00428],[101.71854,3.00731],[101.71729,3.0074],[101.7176,3.00838],[101.71771,3.00831],[101.71958,3.01088],[101.72063,3.01159],[101.72088,3.01176],[101.72239,3.0094],[101.72567,3.00363],[101.72638,3.00276],[101.7284,3.00058],[101.73125,2.99823],[101.73236,2.99703],[101.73312,2.99609],[101.73399,2.99533],[101.73536,2.99456],[101.73579,2.99419],[101.73639,2.99307],[101.7375,2.99069],[101.73867,2.98858],[101.7403,2.98581],[101.74066,2.98546],[101.74148,2.98382],[101.74169,2.98332],[101.74215,2.98192],[101.7421,2.98128],[101.74229,2.97979],[101.74239,2.97887],[101.74244,2.97787],[101.74244,2.97714],[101.74243,2.97141],[101.74284,2.968],[101.74383,2.9651],[101.74503,2.96217],[101.74566,2.96097],[101.74643,2.95994],[101.74729,2.95886],[101.74919,2.95582],[101.74969,2.95486],[101.75034,2.95358],[101.75121,2.95128],[101.75167,2.94932],[101.75176,2.94592],[101.7518,2.94397],[101.75264,2.9395],[101.75367,2.93647],[101.75539,2.93229],[101.75645,2.92948],[101.75654,2.92918],[101.7566,2.92897],[101.75681,2.92835],[101.75691,2.92791],[101.75699,2.92755],[101.75706,2.9267],[101.75704,2.92593],[101.75694,2.92482],[101.75675,2.92377],[101.75617,2.9211],[101.75603,2.9195],[101.75595,2.91892],[101.75598,2.91836],[101.75612,2.91714],[101.75638,2.91618],[101.75665,2.91541],[101.7571,2.91454],[101.75713,2.9143],[101.75722,2.91412],[101.75754,2.9135],[101.75818,2.91268],[101.75887,2.9121],[101.75953,2.91166],[101.76048,2.91112],[101.76125,2.91066],[101.76193,2.91017],[101.76373,2.90853],[101.76388,2.90836],[101.76432,2.90785],[101.76483,2.90718],[101.7652,2.90657],[101.76573,2.9055],[101.76606,2.90477],[101.76628,2.90408],[101.76642,2.90339],[101.76653,2.90182],[101.76667,2.898],[101.7668,2.89163],[101.76683,2.89029],[101.76686,2.8899],[101.76699,2.8894],[101.7673,2.88846],[101.76803,2.88689],[101.7688,2.88574],[101.76935,2.8852],[101.7699,2.88471],[101.77068,2.88412],[101.77282,2.8829],[101.77496,2.88196],[101.77994,2.87955],[101.78256,2.8781],[101.78383,2.87724],[101.78494,2.8764],[101.78702,2.87432],[101.78779,2.87332],[101.78888,2.87122],[101.7896,2.86925],[101.76851,2.86996],[101.76678,2.87002],[101.76606,2.87026],[101.7512,2.87057],[101.75244,2.86039],[101.75269,2.85636],[101.75285,2.8515],[101.75289,2.84985],[101.75331,2.84306],[101.75342,2.84043],[101.75397,2.83169],[101.75415,2.82823],[101.75438,2.8254],[101.75441,2.82374],[101.75493,2.82024],[101.75553,2.80862],[101.75583,2.80342],[101.75624,2.79799],[101.75648,2.79142],[101.75679,2.78691],[101.75713,2.7815],[101.75758,2.77537],[101.75815,2.76539],[101.75819,2.76221],[101.75878,2.7539],[101.7596,2.74018],[101.75967,2.73922],[101.75991,2.73568],[101.76023,2.73101],[101.76027,2.7304],[101.76082,2.72304],[101.76084,2.72274],[101.76088,2.7222],[101.76162,2.71203],[101.7619,2.70806],[101.76203,2.70382],[101.76192,2.70369],[101.7617,2.70318],[101.76068,2.7021],[101.76053,2.70166],[101.76015,2.70129],[101.75992,2.70078],[101.7598,2.70052],[101.76002,2.70009],[101.76028,2.69982],[101.76045,2.69965],[101.76049,2.69939],[101.7602,2.69899],[101.75972,2.69875],[101.75933,2.69881],[101.75901,2.6992],[101.75873,2.69932],[101.7581,2.6993],[101.75794,2.69928],[101.75775,2.69876],[101.75743,2.69857],[101.75688,2.69829],[101.75657,2.69833],[101.75626,2.69832],[101.75597,2.69809],[101.75564,2.6979],[101.75535,2.69767],[101.75518,2.69725],[101.75514,2.69681],[101.75501,2.69646],[101.75475,2.69608],[101.75439,2.69572],[101.7542,2.69526],[101.75402,2.69477],[101.75415,2.6944],[101.75417,2.69424],[101.75433,2.69403],[101.75468,2.69396],[101.75497,2.69376],[101.75511,2.69364],[101.7552,2.69358],[101.75518,2.69354],[101.75514,2.69342],[101.75508,2.69261],[101.75507,2.69213],[101.75503,2.69181],[101.755,2.69174],[101.75476,2.6913],[101.75434,2.69125],[101.75364,2.69136],[101.75346,2.69136],[101.75326,2.69133],[101.75303,2.69124],[101.75293,2.69117],[101.75261,2.69064],[101.75241,2.69019],[101.75226,2.68978],[101.75216,2.68953],[101.75156,2.68821],[101.75146,2.68791],[101.75144,2.68783],[101.75144,2.68752],[101.75162,2.68708],[101.75187,2.68667],[101.75229,2.68573],[101.75248,2.68518],[101.7525,2.68483],[101.75246,2.68445],[101.75242,2.68432],[101.75202,2.68307],[101.75187,2.68241],[101.75145,2.68166],[101.75119,2.68153],[101.75103,2.68149],[101.75043,2.68148],[101.74986,2.68157],[101.74935,2.6817],[101.7489,2.68179],[101.74859,2.68183],[101.74841,2.68189],[101.74817,2.68193],[101.74759,2.68178],[101.74748,2.68172],[101.74731,2.68166],[101.74699,2.68154],[101.74659,2.68149],[101.74626,2.68139],[101.74603,2.68125],[101.74571,2.68108],[101.74544,2.68085],[101.7451,2.68053],[101.74479,2.68027],[101.74407,2.67947],[101.74374,2.67894],[101.74354,2.67866],[101.74301,2.67809],[101.74244,2.67753],[101.74193,2.67687],[101.7414,2.67621],[101.74102,2.67567],[101.74064,2.67489],[101.7406,2.67472],[101.74052,2.67446],[101.7403,2.67395],[101.7402,2.67367],[101.74007,2.67314],[101.74002,2.6727],[101.73999,2.67213],[101.74,2.67142],[101.74002,2.67098],[101.74009,2.67058],[101.74015,2.67037],[101.74044,2.66958],[101.74078,2.66901],[101.74125,2.66845],[101.74156,2.66814],[101.74195,2.66782],[101.74264,2.66738],[101.74303,2.66718],[101.74327,2.66707],[101.74352,2.66689],[101.74393,2.66666],[101.74537,2.66489],[101.74557,2.66385],[101.74581,2.66304],[101.7459,2.66219],[101.74603,2.66152],[101.74609,2.66131],[101.74658,2.65989],[101.74685,2.65905],[101.74712,2.65796],[101.74724,2.65732],[101.74739,2.65645],[101.74749,2.65567],[101.74749,2.65535],[101.74745,2.65507],[101.74738,2.65481],[101.74735,2.65473],[101.74711,2.65434],[101.74637,2.65341],[101.74536,2.65266],[101.74508,2.65247],[101.744,2.6521],[101.74348,2.65198],[101.743,2.65188],[101.74255,2.65179],[101.74136,2.65124],[101.74068,2.65107],[101.73991,2.65079],[101.73954,2.65038],[101.73911,2.65004],[101.73869,2.64985],[101.738,2.64964],[101.73742,2.64938],[101.73656,2.64889],[101.73506,2.64824],[101.7345,2.64796],[101.73387,2.6476],[101.73302,2.64707],[101.73246,2.6467],[101.73225,2.64655],[101.73159,2.64599],[101.73083,2.6451],[101.72974,2.64376],[101.72937,2.64335],[101.72824,2.6422],[101.72789,2.64169],[101.72778,2.64146],[101.72751,2.64103],[101.72702,2.64035],[101.72681,2.64002],[101.72636,2.63923],[101.72603,2.63879],[101.72582,2.63854],[101.72569,2.63836],[101.72534,2.63774],[101.72499,2.63703],[101.72453,2.6357],[101.72478,2.63527],[101.72499,2.63486],[101.72533,2.63435],[101.72615,2.6337],[101.72671,2.63321],[101.72771,2.63181],[101.72812,2.63099],[101.72872,2.62976],[101.72906,2.62895],[101.72931,2.62815],[101.72955,2.62729],[101.72979,2.62646],[101.72996,2.62574],[101.72998,2.62559],[101.73002,2.62489],[101.73023,2.62314],[101.73029,2.62225],[101.73025,2.62051],[101.73013,2.61966],[101.72985,2.6181],[101.72975,2.61779],[101.72965,2.6175],[101.72942,2.61708],[101.72908,2.61673],[101.72888,2.6166],[101.72875,2.61654],[101.72849,2.61645],[101.72812,2.61639],[101.72789,2.61637],[101.7276,2.61641],[101.72744,2.61645],[101.7271,2.61659],[101.72685,2.61671],[101.7267,2.61687],[101.72622,2.61753],[101.72568,2.61822],[101.72487,2.61919],[101.72396,2.61983],[101.72334,2.6201],[101.72302,2.6202],[101.72276,2.62026],[101.72249,2.62029],[101.7222,2.6203],[101.72147,2.62026],[101.72102,2.62016],[101.72074,2.62008],[101.72048,2.62],[101.71989,2.61985],[101.71966,2.61977],[101.71826,2.61925],[101.71719,2.61891],[101.71699,2.61883],[101.71635,2.61854],[101.71546,2.61805],[101.71468,2.61767],[101.71404,2.61733],[101.71323,2.61684],[101.71244,2.61631],[101.71201,2.61602],[101.71155,2.61565],[101.71081,2.61517],[101.71016,2.61468],[101.70938,2.61415],[101.70871,2.61363],[101.70818,2.61318],[101.70763,2.61262],[101.70565,2.61094],[101.70503,2.61033],[101.7043,2.60965],[101.70297,2.60798],[101.70297,2.6078],[101.70285,2.60738],[101.70283,2.60725],[101.70261,2.60639],[101.70249,2.60577],[101.70247,2.60553],[101.70245,2.6049],[101.70246,2.60468],[101.70249,2.6044],[101.70255,2.60421],[101.7027,2.60388],[101.70309,2.60335],[101.70393,2.60284],[101.70454,2.60251],[101.70538,2.60216],[101.70618,2.6018],[101.70646,2.60169],[101.70702,2.60144],[101.70763,2.60116],[101.7082,2.60078],[101.70835,2.60071],[101.70905,2.60016],[101.71054,2.59924],[101.71087,2.59896],[101.71199,2.59765],[101.7124,2.59708],[101.71263,2.59599],[101.71167,2.59619],[101.71119,2.5957],[101.71,2.59488],[101.7095,2.59411],[101.70822,2.59394],[101.70411,2.5943],[101.70323,2.59385],[101.70231,2.59398],[101.70125,2.59474],[101.69915,2.59503],[101.69755,2.59434],[101.69623,2.59453],[101.69397,2.59547],[101.69349,2.59625],[101.69154,2.5976],[101.68953,2.59939],[101.68867,2.60043],[101.68874,2.60226],[101.68802,2.60295],[101.68773,2.60573],[101.68653,2.60969],[101.68576,2.6103],[101.6846,2.61041],[101.68445,2.60981],[101.68379,2.60974],[101.68154,2.61187],[101.67901,2.6139],[101.6775,2.61495],[101.67561,2.61563],[101.67318,2.61725],[101.67157,2.61793],[101.66994,2.61786],[101.66802,2.61886],[101.66595,2.61909],[101.66294,2.62005],[101.65986,2.62016],[101.65702,2.62199],[101.65531,2.62282],[101.65143,2.62315],[101.64942,2.62377],[101.64216,2.62607],[101.63407,2.62865],[101.6311,2.63011],[101.62486,2.63202],[101.62469,2.63295],[101.62365,2.63216],[101.62215,2.63216],[101.61937,2.63231],[101.61724,2.63298],[101.61496,2.6331],[101.61382,2.63282],[101.61118,2.63287],[101.60884,2.63305],[101.60667,2.63455],[101.60448,2.63475],[101.6032,2.63533],[101.60281,2.63548],[101.60251,2.63567],[101.60202,2.63595],[101.60164,2.63621],[101.60112,2.63642],[101.60051,2.63655],[101.60011,2.637],[101.59985,2.63725],[101.59944,2.63754],[101.59904,2.63778],[101.59856,2.63803],[101.59812,2.63824],[101.59775,2.63857],[101.59737,2.63874],[101.59707,2.63883],[101.59663,2.63901],[101.59654,2.63933],[101.59642,2.6395],[101.59591,2.63975],[101.59559,2.63997],[101.59521,2.64017],[101.59498,2.64016],[101.59465,2.64009],[101.5945,2.64013],[101.59434,2.64036],[101.594,2.64052],[101.59383,2.64063],[101.59373,2.64076],[101.59363,2.64096],[101.59349,2.6411],[101.59314,2.6413],[101.59274,2.64151],[101.59252,2.6416],[101.5921,2.64177],[101.59176,2.6418],[101.59133,2.64174],[101.59099,2.6416],[101.59055,2.64151],[101.5902,2.64152],[101.59012,2.6416],[101.59013,2.64183],[101.59025,2.6422],[101.59015,2.64239],[101.59,2.64246],[101.59715,2.6451],[101.59657,2.64658],[101.59704,2.64751],[101.59798,2.64828],[101.59758,2.65103],[101.59689,2.6512],[101.59566,2.71045],[101.59571,2.72765],[101.63298,2.72761],[101.63324,2.7562],[101.64781,2.77405],[101.64959,2.77621],[101.65113,2.77801],[101.65135,2.77824],[101.65549,2.78299],[101.65877,2.78663],[101.6642,2.79262],[101.66943,2.79884],[101.67491,2.80499],[101.67948,2.81013],[101.68339,2.81441],[101.68188,2.81587],[101.68116,2.81632],[101.67931,2.8174],[101.67881,2.81767],[101.67806,2.81829],[101.67702,2.81925],[101.6763,2.82005],[101.67479,2.82154],[101.67433,2.82204],[101.67381,2.82243],[101.67297,2.82296],[101.67204,2.82339],[101.67129,2.82366],[101.67034,2.82371],[101.66939,2.8237],[101.66849,2.8237],[101.66789,2.8237],[101.66689,2.82364],[101.66635,2.82334],[101.66597,2.82324],[101.65944,2.82977],[101.65359,2.8356],[101.65007,2.83922],[101.64789,2.84115],[101.64006,2.85575],[101.63228,2.87077],[101.6242,2.88596],[101.61677,2.89992],[101.60935,2.91395],[101.60505,2.92245],[101.59751,2.93706],[101.58159,2.96748],[101.57816,2.97458],[101.57567,2.97967]]]]}},{"type":"Feature","properties":{"name":"Kuala Langat","admin_level":6,"osm_id":10743362},"geometry":{"type":"MultiPolygon","coordinates":[[[[101.37019,2.90448],[101.37025,2.90238],[101.36651,2.90388],[101.36316,2.90563],[101.36227,2.90647],[101.35975,2.90852],[101.35714,2.91102],[101.35662,2.91155],[101.35446,2.91412],[101.35155,2.91883],[101.34949,2.92225],[101.34828,2.92333],[101.34684,2.92379],[101.34418,2.92371],[101.34104,2.92298],[101.33872,2.92195],[101.33849,2.92103],[101.33904,2.91983],[101.34003,2.91915],[101.34343,2.91575],[101.34616,2.91291],[101.34845,2.91023],[101.3495,2.90872],[101.35029,2.90721],[101.35135,2.90422],[101.35177,2.90079],[101.35168,2.89974],[101.35108,2.89759],[101.35054,2.89664],[101.34984,2.89537],[101.34923,2.89458],[101.34867,2.89399],[101.34559,2.89258],[101.34273,2.89257],[101.33938,2.89376],[101.33503,2.89745],[101.32852,2.90481],[101.32352,2.9093],[101.32232,2.91046],[101.32018,2.9103],[101.31856,2.90856],[101.31714,2.90687],[101.31421,2.90327],[101.31017,2.89748],[101.30651,2.89276],[101.3038,2.88945],[101.30012,2.88728],[101.29617,2.88439],[101.29024,2.88035],[101.28928,2.87954],[101.28533,2.87734],[101.28485,2.87667],[101.28453,2.87582],[101.2842,2.87504],[101.28407,2.87478],[101.28383,2.87441],[101.28367,2.87405],[101.28363,2.87371],[101.28369,2.87132],[101.2837,2.86968],[101.28388,2.86909],[101.28396,2.86874],[101.28399,2.86787],[101.28406,2.86743],[101.2842,2.867],[101.28428,2.86686],[101.2845,2.86666],[101.28464,2.86652],[101.2849,2.86596],[101.28519,2.86506],[101.28541,2.86392],[101.28559,2.86271],[101.28568,2.86231],[101.28584,2.86193],[101.28597,2.86181],[101.286,2.86025],[101.28593,2.86006],[101.28594,2.85889],[101.28601,2.85822],[101.2861,2.8576],[101.28626,2.857],[101.28649,2.8564],[101.28673,2.8557],[101.28686,2.85501],[101.28754,2.8532],[101.28756,2.85308],[101.28766,2.85293],[101.28786,2.85236],[101.28796,2.85186],[101.28799,2.85117],[101.28807,2.8508],[101.28846,2.84959],[101.28852,2.84931],[101.2886,2.84885],[101.28875,2.84821],[101.28891,2.84712],[101.28934,2.84607],[101.28943,2.84569],[101.28942,2.84538],[101.28959,2.84469],[101.28959,2.84376],[101.28975,2.84345],[101.29004,2.84279],[101.29036,2.84193],[101.2907,2.84094],[101.29099,2.84023],[101.29157,2.83898],[101.29196,2.83831],[101.2922,2.83805],[101.29256,2.83783],[101.29295,2.83765],[101.29333,2.83756],[101.29361,2.83749],[101.29388,2.83733],[101.29427,2.83709],[101.29463,2.837],[101.29487,2.83702],[101.29506,2.8371],[101.29522,2.83727],[101.29545,2.83736],[101.29555,2.83734],[101.29579,2.8372],[101.29602,2.83711],[101.29626,2.83715],[101.29645,2.83713],[101.29661,2.83708],[101.29688,2.83692],[101.2973,2.83669],[101.29793,2.83644],[101.29853,2.83649],[101.29876,2.83645],[101.29912,2.83628],[101.29922,2.83618],[101.29945,2.83588],[101.29957,2.83552],[101.29965,2.83514],[101.29973,2.83497],[101.30031,2.83479],[101.30083,2.83455],[101.30195,2.83398],[101.30263,2.83377],[101.30321,2.83336],[101.30394,2.83314],[101.30436,2.83303],[101.30465,2.83302],[101.30484,2.833],[101.30502,2.83291],[101.30594,2.83268],[101.3062,2.83248],[101.30643,2.83235],[101.30684,2.83227],[101.30718,2.83231],[101.30738,2.83244],[101.30755,2.83224],[101.3077,2.83212],[101.30784,2.83207],[101.30919,2.83209],[101.31013,2.83206],[101.31076,2.83212],[101.31094,2.83222],[101.31141,2.83258],[101.31177,2.83277],[101.31218,2.83286],[101.31275,2.83291],[101.31343,2.83283],[101.3136,2.83289],[101.31377,2.83292],[101.31435,2.83261],[101.3153,2.83258],[101.31557,2.83252],[101.31586,2.8324],[101.31623,2.83229],[101.31703,2.83231],[101.31744,2.83226],[101.31805,2.83226],[101.31839,2.83214],[101.31864,2.83208],[101.31898,2.83209],[101.3192,2.83219],[101.31926,2.83224],[101.31928,2.8324],[101.31939,2.8325],[101.31967,2.83252],[101.3198,2.83245],[101.32032,2.83229],[101.32176,2.83146],[101.32221,2.83128],[101.32272,2.83119],[101.32298,2.83119],[101.32322,2.83106],[101.32342,2.83087],[101.32362,2.83068],[101.32439,2.83031],[101.32457,2.8302],[101.32463,2.83017],[101.32486,2.83005],[101.32562,2.82989],[101.32594,2.82978],[101.32671,2.82945],[101.32691,2.82931],[101.32716,2.82917],[101.32777,2.82905],[101.32859,2.82872],[101.3318,2.82768],[101.3337,2.82692],[101.33464,2.82646],[101.33522,2.82623],[101.3355,2.8261],[101.33564,2.826],[101.33597,2.82582],[101.33628,2.82571],[101.33646,2.82563],[101.33673,2.82541],[101.33717,2.82519],[101.33776,2.8249],[101.33815,2.82476],[101.33843,2.82455],[101.33882,2.82438],[101.33909,2.82424],[101.33928,2.82405],[101.33954,2.82385],[101.33977,2.82374],[101.34008,2.8237],[101.34014,2.82359],[101.34043,2.82328],[101.34128,2.82269],[101.34161,2.82251],[101.34209,2.82234],[101.34295,2.82219],[101.34422,2.82185],[101.34455,2.82174],[101.34483,2.82173],[101.345,2.82152],[101.34522,2.8212],[101.3452,2.82086],[101.34513,2.82075],[101.34509,2.82039],[101.34494,2.82001],[101.34496,2.81988],[101.34507,2.81977],[101.34552,2.81958],[101.34576,2.81939],[101.34604,2.81925],[101.34636,2.81917],[101.34679,2.81885],[101.34734,2.81858],[101.34771,2.81847],[101.34787,2.81832],[101.34816,2.81796],[101.34834,2.81781],[101.34861,2.81768],[101.34921,2.81746],[101.34981,2.81738],[101.35006,2.81739],[101.35028,2.81743],[101.35086,2.81733],[101.35111,2.81732],[101.35137,2.81752],[101.35152,2.81758],[101.35201,2.81762],[101.35513,2.8162],[101.35523,2.8159],[101.35534,2.8157],[101.35562,2.81534],[101.35607,2.81486],[101.35647,2.81455],[101.35668,2.81436],[101.35699,2.81409],[101.35723,2.81394],[101.35792,2.81336],[101.35827,2.81314],[101.35861,2.81302],[101.36007,2.81243],[101.36133,2.81203],[101.36324,2.81167],[101.36436,2.81156],[101.36565,2.81137],[101.36633,2.81135],[101.36748,2.81097],[101.36895,2.81065],[101.36936,2.81053],[101.37079,2.81024],[101.37145,2.81015],[101.37192,2.81007],[101.37307,2.80994],[101.37355,2.80978],[101.37431,2.80955],[101.37461,2.80942],[101.37535,2.80917],[101.3757,2.80913],[101.37673,2.80896],[101.37793,2.80861],[101.37839,2.80851],[101.37898,2.80847],[101.37978,2.80833],[101.38068,2.80809],[101.38132,2.808],[101.38187,2.80789],[101.3822,2.80779],[101.38284,2.80756],[101.38363,2.80751],[101.38519,2.80714],[101.38603,2.807],[101.38691,2.80689],[101.38735,2.80688],[101.3883,2.80695],[101.3888,2.80706],[101.38947,2.80711],[101.39008,2.80708],[101.3917,2.80721],[101.39258,2.80721],[101.39355,2.80716],[101.39438,2.80685],[101.39496,2.80664],[101.39569,2.80632],[101.39644,2.80602],[101.39675,2.80593],[101.39713,2.80584],[101.39788,2.80577],[101.39938,2.80559],[101.40018,2.80555],[101.40089,2.80559],[101.40199,2.80568],[101.40242,2.80567],[101.40277,2.80556],[101.40286,2.80549],[101.40597,2.80096],[101.40591,2.80085],[101.40586,2.80051],[101.4058,2.80041],[101.40581,2.80018],[101.40601,2.7998],[101.406,2.79934],[101.40617,2.79913],[101.40637,2.79893],[101.40642,2.79875],[101.40641,2.79841],[101.4065,2.79804],[101.40647,2.79789],[101.40632,2.79753],[101.40632,2.79729],[101.40638,2.79712],[101.4066,2.79679],[101.40666,2.79625],[101.40678,2.79604],[101.40723,2.79542],[101.40727,2.79531],[101.40738,2.79513],[101.40743,2.79441],[101.40752,2.79417],[101.40775,2.79356],[101.40786,2.79311],[101.40792,2.79253],[101.408,2.7923],[101.40823,2.7919],[101.40824,2.79175],[101.40821,2.79161],[101.40828,2.79134],[101.40836,2.79126],[101.40837,2.79103],[101.40833,2.7907],[101.40841,2.79045],[101.40854,2.79028],[101.4087,2.79018],[101.40916,2.79002],[101.4093,2.78985],[101.40934,2.78965],[101.40929,2.78944],[101.4092,2.78917],[101.40925,2.78891],[101.40933,2.78876],[101.40954,2.7885],[101.40999,2.7881],[101.41016,2.78802],[101.41069,2.78756],[101.41075,2.78739],[101.41104,2.78701],[101.41112,2.78688],[101.41119,2.78686],[101.41156,2.78653],[101.41213,2.7858],[101.41253,2.78539],[101.4127,2.78531],[101.41318,2.78531],[101.41353,2.785],[101.4142,2.78439],[101.4142,2.78404],[101.41421,2.78383],[101.41432,2.78347],[101.41441,2.78335],[101.41474,2.78302],[101.41493,2.78286],[101.41628,2.78201],[101.41694,2.78169],[101.41731,2.78141],[101.41749,2.78133],[101.41799,2.78104],[101.41819,2.78097],[101.41866,2.78089],[101.41918,2.78085],[101.41977,2.78096],[101.4202,2.7809],[101.42055,2.7808],[101.42061,2.78058],[101.42075,2.78029],[101.42079,2.77998],[101.42093,2.77981],[101.42099,2.77951],[101.42113,2.77932],[101.42136,2.77915],[101.42161,2.77892],[101.42175,2.77876],[101.42206,2.77847],[101.42225,2.77834],[101.42266,2.77819],[101.42291,2.77779],[101.423,2.77761],[101.42313,2.77741],[101.42339,2.77714],[101.4237,2.77654],[101.42384,2.7764],[101.42466,2.77536],[101.42498,2.77499],[101.42528,2.77476],[101.42532,2.77468],[101.42571,2.77439],[101.42594,2.77429],[101.42633,2.77427],[101.42667,2.77436],[101.42686,2.77456],[101.42689,2.77467],[101.42683,2.77506],[101.42687,2.77505],[101.42717,2.7749],[101.42777,2.77484],[101.42789,2.77478],[101.42787,2.77464],[101.42736,2.77438],[101.42731,2.77425],[101.4273,2.77403],[101.42735,2.77375],[101.42748,2.77352],[101.42772,2.77324],[101.42782,2.77296],[101.42793,2.77282],[101.42843,2.77255],[101.42867,2.77224],[101.42876,2.77195],[101.42879,2.7715],[101.42876,2.77131],[101.42866,2.77117],[101.42851,2.77115],[101.42839,2.77112],[101.42831,2.771],[101.42831,2.77085],[101.42843,2.7706],[101.42939,2.76901],[101.42955,2.76879],[101.43051,2.76777],[101.43072,2.76745],[101.43096,2.76697],[101.43102,2.76694],[101.43155,2.76637],[101.43178,2.76597],[101.4319,2.76592],[101.43208,2.76575],[101.43222,2.7655],[101.43245,2.76499],[101.43263,2.76464],[101.43294,2.76384],[101.43341,2.76322],[101.43394,2.76259],[101.43437,2.76224],[101.43457,2.76195],[101.43477,2.76145],[101.4348,2.76135],[101.43511,2.76095],[101.43581,2.7604],[101.43597,2.76039],[101.43614,2.76042],[101.43627,2.76035],[101.43633,2.7601],[101.43637,2.76001],[101.43647,2.75947],[101.43662,2.75902],[101.43714,2.75803],[101.43754,2.75743],[101.43795,2.7571],[101.43834,2.75662],[101.43844,2.75659],[101.43979,2.75545],[101.44046,2.75431],[101.44093,2.75371],[101.44151,2.75261],[101.44183,2.75168],[101.44197,2.75097],[101.44255,2.74949],[101.44295,2.74889],[101.44307,2.74845],[101.4435,2.74735],[101.44477,2.74486],[101.44508,2.74414],[101.44543,2.7432],[101.44576,2.7425],[101.44599,2.74223],[101.44616,2.74212],[101.44627,2.74213],[101.44644,2.74217],[101.44659,2.7421],[101.4467,2.74198],[101.44702,2.74132],[101.44748,2.74054],[101.4479,2.73986],[101.44831,2.73928],[101.44854,2.73862],[101.44864,2.73845],[101.4489,2.7382],[101.44899,2.73816],[101.44911,2.73803],[101.44934,2.73794],[101.45011,2.73665],[101.44997,2.7364],[101.44987,2.73612],[101.44985,2.73575],[101.4499,2.73516],[101.45003,2.7347],[101.45045,2.73356],[101.45093,2.73292],[101.45105,2.7326],[101.45124,2.73229],[101.45197,2.73138],[101.4528,2.72979],[101.45327,2.72916],[101.45349,2.72895],[101.45361,2.72879],[101.45377,2.72849],[101.45404,2.72816],[101.45407,2.72815],[101.45432,2.7277],[101.45431,2.72764],[101.45457,2.72696],[101.45459,2.72643],[101.45467,2.72618],[101.45489,2.72567],[101.45504,2.72505],[101.4552,2.72465],[101.45535,2.72417],[101.45547,2.72393],[101.45574,2.72335],[101.45631,2.72142],[101.45724,2.71895],[101.45762,2.71807],[101.45817,2.71705],[101.45832,2.71692],[101.45836,2.71681],[101.45874,2.71632],[101.45883,2.7161],[101.45906,2.71567],[101.45913,2.71549],[101.45929,2.71523],[101.45934,2.71519],[101.45961,2.71469],[101.45968,2.71462],[101.45979,2.71436],[101.4601,2.71398],[101.46041,2.71364],[101.46076,2.71311],[101.46094,2.7129],[101.4613,2.71239],[101.46138,2.71219],[101.46151,2.7116],[101.46152,2.71082],[101.46156,2.71047],[101.4618,2.71022],[101.46207,2.7101],[101.46424,2.70712],[101.46692,2.70364],[101.46915,2.70148],[101.4712,2.69914],[101.47229,2.6981],[101.47426,2.69562],[101.4764,2.69389],[101.47754,2.69251],[101.48059,2.68914],[101.48348,2.68686],[101.48594,2.68604],[101.48959,2.68385],[101.49331,2.6824],[101.49582,2.68188],[101.49782,2.68061],[101.49961,2.6793],[101.50302,2.6777],[101.50559,2.67669],[101.50607,2.67651],[101.50621,2.67648],[101.50652,2.67631],[101.50697,2.67611],[101.50757,2.67594],[101.50947,2.67558],[101.50999,2.67555],[101.51091,2.67565],[101.51138,2.67561],[101.51192,2.6754],[101.51221,2.67531],[101.51244,2.67518],[101.51281,2.67512],[101.51334,2.67498],[101.51464,2.67495],[101.51491,2.67489],[101.51542,2.67459],[101.51583,2.67452],[101.51634,2.67423],[101.51684,2.67413],[101.51704,2.67404],[101.51724,2.6739],[101.51753,2.67353],[101.51782,2.67329],[101.51833,2.67302],[101.51893,2.6728],[101.51934,2.67268],[101.52048,2.67201],[101.52074,2.6719],[101.52107,2.67184],[101.52193,2.67183],[101.52226,2.67178],[101.52295,2.67137],[101.52344,2.67126],[101.52389,2.6712],[101.52405,2.67116],[101.52408,2.67112],[101.52429,2.671],[101.52466,2.67074],[101.52474,2.67068],[101.52484,2.67058],[101.52507,2.67049],[101.52555,2.67046],[101.52572,2.67037],[101.52588,2.67021],[101.52595,2.67004],[101.52602,2.66985],[101.52618,2.66974],[101.52651,2.66961],[101.52677,2.66939],[101.52725,2.66923],[101.52742,2.6691],[101.52791,2.66858],[101.52809,2.6685],[101.52826,2.66852],[101.52843,2.66857],[101.52868,2.66816],[101.52884,2.668],[101.52889,2.66799],[101.52902,2.66785],[101.52926,2.66761],[101.52952,2.66737],[101.52989,2.66713],[101.53013,2.66706],[101.53039,2.66701],[101.53055,2.66694],[101.53097,2.66673],[101.53184,2.66641],[101.53208,2.66628],[101.53225,2.66621],[101.53298,2.66606],[101.53315,2.66593],[101.53342,2.6657],[101.53369,2.66555],[101.5341,2.66542],[101.53449,2.66537],[101.53476,2.6651],[101.53495,2.66504],[101.5354,2.66496],[101.53602,2.66457],[101.53639,2.6644],[101.53692,2.66427],[101.53745,2.66367],[101.5377,2.66351],[101.53852,2.66319],[101.53917,2.66286],[101.54006,2.66255],[101.54009,2.66249],[101.54067,2.66219],[101.54105,2.6619],[101.54174,2.66166],[101.54202,2.66148],[101.54234,2.66125],[101.54353,2.66063],[101.54377,2.66052],[101.54412,2.66038],[101.54471,2.66031],[101.54504,2.66019],[101.54589,2.6601],[101.54627,2.65992],[101.54665,2.65968],[101.54777,2.65942],[101.54821,2.65919],[101.54939,2.65874],[101.55015,2.65838],[101.55125,2.65789],[101.55196,2.6577],[101.55231,2.65752],[101.55251,2.65741],[101.55255,2.65736],[101.55283,2.65714],[101.55299,2.65706],[101.55304,2.657],[101.55326,2.65687],[101.55359,2.65679],[101.55388,2.65678],[101.55415,2.65692],[101.55455,2.65733],[101.55459,2.65742],[101.55474,2.65759],[101.55493,2.65777],[101.55513,2.65784],[101.5553,2.65782],[101.55555,2.65766],[101.55565,2.6575],[101.55569,2.65705],[101.55573,2.65685],[101.55583,2.65674],[101.55638,2.65662],[101.55663,2.65655],[101.55691,2.65645],[101.55723,2.65644],[101.55765,2.65654],[101.5579,2.65655],[101.55827,2.65645],[101.55882,2.65643],[101.55927,2.65626],[101.55948,2.65622],[101.56022,2.65636],[101.56066,2.6564],[101.56104,2.65636],[101.5616,2.6562],[101.56178,2.65608],[101.56256,2.65569],[101.56343,2.65533],[101.5638,2.6552],[101.56427,2.65503],[101.56466,2.65493],[101.56501,2.65486],[101.5654,2.65469],[101.56567,2.65453],[101.56591,2.65435],[101.56662,2.65403],[101.56698,2.65389],[101.56738,2.65372],[101.56777,2.65338],[101.56851,2.65299],[101.56885,2.65287],[101.56924,2.65268],[101.56945,2.65265],[101.5696,2.65256],[101.57014,2.65234],[101.57075,2.65205],[101.57112,2.6519],[101.57241,2.65162],[101.57371,2.65121],[101.5744,2.65083],[101.57513,2.65055],[101.57575,2.65034],[101.57665,2.65002],[101.57691,2.64998],[101.57774,2.64997],[101.57823,2.65002],[101.57853,2.65019],[101.57865,2.6502],[101.57872,2.65017],[101.57872,2.65004],[101.57876,2.65],[101.57911,2.6501],[101.57935,2.65014],[101.57984,2.65011],[101.58029,2.64995],[101.5808,2.64969],[101.58152,2.64908],[101.582,2.64859],[101.5823,2.64835],[101.58253,2.64826],[101.5827,2.64827],[101.58315,2.6485],[101.58302,2.64816],[101.58305,2.64809],[101.58366,2.6479],[101.58408,2.64773],[101.58451,2.64748],[101.58529,2.64689],[101.58532,2.64683],[101.58556,2.64663],[101.58592,2.64628],[101.58615,2.64598],[101.58625,2.64588],[101.58628,2.64581],[101.58644,2.64563],[101.58667,2.6455],[101.58684,2.64546],[101.58735,2.64554],[101.58761,2.64531],[101.5876,2.64501],[101.5874,2.64478],[101.58756,2.64443],[101.58764,2.64433],[101.58798,2.64425],[101.58819,2.64394],[101.5883,2.64389],[101.58857,2.64406],[101.58873,2.64351],[101.58898,2.64337],[101.58929,2.64313],[101.59,2.64246],[101.59715,2.6451],[101.59657,2.64658],[101.59704,2.64751],[101.59798,2.64828],[101.59758,2.65103],[101.59689,2.6512],[101.59566,2.71045],[101.59571,2.72765],[101.63298,2.72761],[101.63324,2.7562],[101.64781,2.77405],[101.64959,2.77621],[101.65113,2.77801],[101.65135,2.77824],[101.65549,2.78299],[101.65877,2.78663],[101.6642,2.79262],[101.66943,2.79884],[101.67491,2.80499],[101.67948,2.81013],[101.68339,2.81441],[101.68188,2.81587],[101.68116,2.81632],[101.67931,2.8174],[101.67881,2.81767],[101.67806,2.81829],[101.67702,2.81925],[101.6763,2.82005],[101.67479,2.82154],[101.67433,2.82204],[101.67381,2.82243],[101.67297,2.82296],[101.67204,2.82339],[101.67129,2.82366],[101.67034,2.82371],[101.66939,2.8237],[101.66849,2.8237],[101.66789,2.8237],[101.66689,2.82364],[101.66635,2.82334],[101.66597,2.82324],[101.65944,2.82977],[101.65359,2.8356],[101.65007,2.83922],[101.64789,2.84115],[101.64006,2.85575],[101.63228,2.87077],[101.6242,2.88596],[101.61677,2.89992],[101.60935,2.91395],[101.60505,2.92245],[101.59751,2.93706],[101.58159,2.96748],[101.57816,2.97458],[101.57567,2.97967],[101.57455,2.97941],[101.57404,2.97871],[101.57324,2.97808],[101.57284,2.97747],[101.57225,2.97728],[101.57232,2.97695],[101.56884,2.9748],[101.56769,2.97416],[101.56028,2.97024],[101.56138,2.96774],[101.56146,2.96755],[101.56225,2.96574],[101.56252,2.96512],[101.56261,2.96494],[101.56287,2.96432],[101.55285,2.95906],[101.54982,2.95744],[101.54998,2.96468],[101.53612,2.95666],[101.52405,2.94962],[101.51908,2.95002],[101.49452,2.94973],[101.47021,2.95013],[101.46944,2.95209],[101.45208,2.95203],[101.44519,2.95056],[101.44168,2.95022],[101.43975,2.9503],[101.43746,2.95031],[101.43477,2.95038],[101.43073,2.95029],[101.42673,2.95016],[101.42314,2.95019],[101.42165,2.95003],[101.42379,2.95246],[101.42589,2.95426],[101.43323,2.95759],[101.43607,2.95849],[101.43785,2.96019],[101.43876,2.96151],[101.43918,2.96269],[101.4392,2.96391],[101.43878,2.96517],[101.43792,2.96644],[101.43741,2.96693],[101.43014,2.97297],[101.42171,2.97745],[101.41687,2.97824],[101.41326,2.9768],[101.41071,2.97395],[101.40904,2.97055],[101.40754,2.96537],[101.40636,2.96051],[101.406,2.95737],[101.406,2.95737],[101.40378,2.95332],[101.40119,2.95026],[101.39785,2.94761],[101.39498,2.9457],[101.39264,2.94434],[101.39069,2.94279],[101.38926,2.94108],[101.3869,2.93596],[101.387,2.93243],[101.38728,2.92657],[101.38739,2.9235],[101.38634,2.91818],[101.38425,2.91338],[101.3833,2.91142],[101.38163,2.90879],[101.37969,2.90667],[101.37834,2.90564],[101.37707,2.90493],[101.37464,2.90388],[101.3732,2.90376],[101.37153,2.90407],[101.37019,2.90448]]]]}},{"type":"Feature","properties":{"name":"Hulu Langat","admin_level":6,"osm_id":12438351},"geometry":{"type":"MultiPolygon","coordinates":[[[[101.85369,3.2758],[101.85389,3.27561],[101.85413,3.2754],[101.85432,3.27523],[101.85505,3.27501],[101.85571,3.27484],[101.85652,3.27471],[101.85707,3.2746],[101.85753,3.27454],[101.85788,3.27435],[101.85803,3.27405],[101.85823,3.27368],[101.85833,3.27355],[101.85835,3.27351],[101.85862,3.27317],[101.86002,3.27243],[101.86024,3.27228],[101.86074,3.27197],[101.86097,3.2716],[101.86111,3.27132],[101.86118,3.27127],[101.86123,3.27115],[101.86148,3.27095],[101.86216,3.27069],[101.86293,3.27038],[101.86415,3.27026],[101.86655,3.2703],[101.86883,3.27035],[101.86962,3.27006],[101.8697,3.27007],[101.87019,3.27017],[101.87065,3.27037],[101.87111,3.27055],[101.87233,3.27102],[101.87274,3.27124],[101.87385,3.2719],[101.87448,3.27215],[101.87486,3.27218],[101.87531,3.27203],[101.87598,3.27159],[101.87631,3.2712],[101.87647,3.27087],[101.87674,3.27022],[101.87714,3.26923],[101.87747,3.26825],[101.87764,3.26798],[101.8777,3.26789],[101.8778,3.26778],[101.8785,3.26712],[101.87892,3.26672],[101.87944,3.26632],[101.88016,3.26579],[101.88056,3.26538],[101.8808,3.26517],[101.88133,3.26455],[101.88163,3.26431],[101.88214,3.26404],[101.88275,3.26387],[101.88334,3.26342],[101.88369,3.26301],[101.88518,3.261],[101.88553,3.26084],[101.88639,3.26098],[101.8879,3.26122],[101.88827,3.26128],[101.88874,3.26123],[101.88919,3.26112],[101.89004,3.2604],[101.89049,3.26027],[101.89083,3.26045],[101.89109,3.26069],[101.89227,3.26259],[101.89273,3.2639],[101.89318,3.26501],[101.89378,3.26563],[101.89413,3.26581],[101.89759,3.26651],[101.89918,3.26655],[101.90029,3.26654],[101.90101,3.26618],[101.9015,3.26578],[101.90195,3.26546],[101.90354,3.26413],[101.90407,3.26394],[101.90612,3.26378],[101.90721,3.26357],[101.90792,3.26327],[101.90841,3.26281],[101.90883,3.26234],[101.90902,3.26206],[101.90909,3.26182],[101.90911,3.26103],[101.90913,3.26043],[101.90935,3.25909],[101.90947,3.25897],[101.90948,3.25893],[101.9097,3.25868],[101.91003,3.25854],[101.91068,3.25848],[101.91112,3.25855],[101.9116,3.25886],[101.91206,3.25916],[101.91324,3.25994],[101.91385,3.26014],[101.91438,3.25974],[101.91512,3.25953],[101.91667,3.25932],[101.91746,3.2594],[101.91785,3.25963],[101.9184,3.2601],[101.91871,3.2602],[101.91924,3.26015],[101.91971,3.25999],[101.92012,3.2598],[101.92076,3.25971],[101.92151,3.25981],[101.92242,3.26],[101.92301,3.26016],[101.92447,3.26027],[101.92539,3.26027],[101.92567,3.2601],[101.92589,3.25962],[101.92619,3.25937],[101.9277,3.25823],[101.92833,3.25767],[101.92836,3.25738],[101.92822,3.25692],[101.92796,3.25618],[101.92792,3.25565],[101.92809,3.25513],[101.92859,3.25445],[101.92897,3.25415],[101.92923,3.25408],[101.92967,3.25424],[101.93009,3.25447],[101.93031,3.25448],[101.93039,3.25448],[101.93107,3.25428],[101.93135,3.25411],[101.93159,3.25382],[101.93177,3.25366],[101.93214,3.25311],[101.9324,3.25271],[101.93315,3.25168],[101.93332,3.25139],[101.9336,3.25111],[101.93406,3.25093],[101.93458,3.25076],[101.9348,3.25065],[101.9348,3.25048],[101.93458,3.25025],[101.93418,3.24973],[101.93378,3.24938],[101.93343,3.24898],[101.93309,3.24835],[101.93281,3.24783],[101.93264,3.24749],[101.93247,3.24703],[101.93229,3.24634],[101.93218,3.246],[101.9319,3.24571],[101.93087,3.24496],[101.93144,3.24422],[101.93167,3.24387],[101.93207,3.24324],[101.9323,3.24284],[101.93247,3.24238],[101.93264,3.24186],[101.93281,3.24146],[101.93299,3.24117],[101.93321,3.24089],[101.93396,3.24031],[101.93442,3.24003],[101.93487,3.23957],[101.93516,3.23934],[101.93602,3.23899],[101.93687,3.23854],[101.93762,3.23819],[101.93819,3.23785],[101.93876,3.23745],[101.93916,3.23716],[101.93968,3.23664],[101.94013,3.23613],[101.9403,3.23578],[101.94076,3.23498],[101.94139,3.23343],[101.94237,3.23108],[101.9426,3.23045],[101.943,3.22976],[101.94317,3.22941],[101.94345,3.22907],[101.94391,3.22855],[101.9442,3.22798],[101.94471,3.22649],[101.94471,3.22637],[101.94511,3.22557],[101.94529,3.2254],[101.94603,3.22419],[101.94626,3.22373],[101.94689,3.22281],[101.94717,3.2223],[101.94723,3.22201],[101.94729,3.22155],[101.94729,3.22046],[101.94735,3.2196],[101.94729,3.21897],[101.94724,3.21868],[101.94729,3.21834],[101.94746,3.21799],[101.94781,3.21748],[101.94804,3.21702],[101.9489,3.21524],[101.94907,3.21495],[101.94912,3.21461],[101.94901,3.21392],[101.9489,3.21334],[101.94867,3.21231],[101.9485,3.21162],[101.94839,3.21122],[101.94816,3.21076],[101.94804,3.21059],[101.9481,3.21024],[101.94822,3.21001],[101.94839,3.20978],[101.95033,3.20686],[101.94919,3.20651],[101.94822,3.20605],[101.94731,3.20565],[101.94554,3.20484],[101.94686,3.19939],[101.94703,3.19882],[101.94714,3.1983],[101.94726,3.19767],[101.94754,3.19577],[101.94766,3.19463],[101.94778,3.19388],[101.94778,3.19325],[101.94783,3.19267],[101.94783,3.1921],[101.94772,3.19176],[101.94755,3.19153],[101.94726,3.1913],[101.94589,3.19038],[101.94555,3.19009],[101.94515,3.18969],[101.94475,3.18917],[101.94447,3.18882],[101.94424,3.18837],[101.94401,3.18796],[101.94367,3.18756],[101.94321,3.1871],[101.94293,3.18687],[101.94213,3.18624],[101.94173,3.18589],[101.94139,3.18561],[101.94116,3.18538],[101.94042,3.1844],[101.94093,3.18365],[101.94116,3.18348],[101.94236,3.18262],[101.94305,3.18222],[101.94367,3.18182],[101.94436,3.18142],[101.94465,3.18125],[101.94476,3.18079],[101.9451,3.17998],[101.94511,3.1793],[101.94505,3.17878],[101.94499,3.17832],[101.94499,3.17752],[101.94505,3.17717],[101.94522,3.1766],[101.94534,3.17597],[101.94551,3.17539],[101.9458,3.17459],[101.94591,3.17401],[101.9462,3.17327],[101.94654,3.17241],[101.94671,3.17178],[101.94683,3.17126],[101.94694,3.17091],[101.94694,3.17046],[101.947,3.17],[101.94706,3.16948],[101.94712,3.16885],[101.94729,3.16833],[101.94735,3.16804],[101.9474,3.16781],[101.9474,3.16741],[101.94752,3.16713],[101.94763,3.16678],[101.9478,3.16644],[101.94809,3.16604],[101.94889,3.16506],[101.94929,3.16466],[101.94963,3.16426],[101.94992,3.16397],[101.95009,3.16368],[101.95026,3.16328],[101.95032,3.16282],[101.95044,3.16213],[101.95061,3.1615],[101.95078,3.16099],[101.95095,3.16058],[101.95118,3.16018],[101.95135,3.15984],[101.95152,3.15955],[101.95158,3.15944],[101.95215,3.15915],[101.95255,3.15909],[101.95301,3.15898],[101.95352,3.15886],[101.95438,3.15846],[101.95495,3.15823],[101.9553,3.15812],[101.95552,3.158],[101.95587,3.15755],[101.95587,3.15657],[101.95598,3.15628],[101.95616,3.15577],[101.95638,3.15531],[101.95661,3.15479],[101.9573,3.15393],[101.95776,3.1533],[101.95793,3.15295],[101.9585,3.15221],[101.9589,3.15175],[101.9581,3.14991],[101.95753,3.14876],[101.95736,3.14825],[101.95725,3.14761],[101.95725,3.14704],[101.95742,3.14641],[101.95788,3.14561],[101.95834,3.14509],[101.95891,3.14475],[101.95999,3.14434],[101.96045,3.14423],[101.96079,3.14412],[101.96119,3.14383],[101.96159,3.1436],[101.96182,3.14343],[101.96234,3.14285],[101.96274,3.14251],[101.96302,3.14222],[101.96354,3.14142],[101.96411,3.14062],[101.96542,3.14039],[101.96565,3.14033],[101.96594,3.14028],[101.96605,3.1401],[101.96622,3.1397],[101.96616,3.13942],[101.96588,3.1393],[101.96531,3.13896],[101.9648,3.13867],[101.96445,3.1385],[101.96422,3.13827],[101.964,3.13798],[101.96388,3.13769],[101.9628,3.13419],[101.96263,3.1339],[101.9624,3.13345],[101.96217,3.13304],[101.96189,3.13258],[101.96189,3.13184],[101.96195,3.13109],[101.96206,3.13058],[101.96206,3.13006],[101.96195,3.12943],[101.96189,3.12891],[101.96178,3.12834],[101.96184,3.12771],[101.9619,3.12702],[101.96212,3.12627],[101.9623,3.1257],[101.96247,3.12495],[101.96253,3.12449],[101.96264,3.12409],[101.96258,3.12381],[101.96253,3.12335],[101.9623,3.12295],[101.9619,3.12231],[101.96099,3.12128],[101.96076,3.12105],[101.9607,3.12065],[101.96048,3.12013],[101.96013,3.11967],[101.95985,3.11921],[101.95968,3.11893],[101.95956,3.11864],[101.95945,3.1183],[101.95734,3.11587],[101.95692,3.11555],[101.95608,3.11504],[101.95509,3.11459],[101.95355,3.11379],[101.95271,3.11309],[101.95236,3.11277],[101.95185,3.11249],[101.95138,3.11261],[101.95111,3.11282],[101.95067,3.11297],[101.95023,3.1131],[101.94978,3.11287],[101.94925,3.11224],[101.94887,3.11153],[101.9489,3.11071],[101.94883,3.10964],[101.94906,3.10909],[101.94924,3.10844],[101.94924,3.10782],[101.94915,3.10709],[101.94909,3.10616],[101.94897,3.10527],[101.94919,3.10397],[101.94983,3.10292],[101.95039,3.102],[101.95095,3.10127],[101.9515,3.10066],[101.95213,3.10006],[101.95289,3.09953],[101.95339,3.09917],[101.95398,3.09892],[101.95436,3.09881],[101.9541,3.09831],[101.95377,3.09778],[101.95373,3.0972],[101.9541,3.09678],[101.95451,3.09647],[101.95495,3.09621],[101.95555,3.09578],[101.95594,3.0948],[101.95625,3.09425],[101.95642,3.09381],[101.95633,3.09348],[101.9561,3.09301],[101.95574,3.09231],[101.95584,3.09182],[101.95616,3.09144],[101.95643,3.0909],[101.95652,3.08987],[101.95702,3.08793],[101.95712,3.08709],[101.95725,3.08633],[101.95753,3.08566],[101.9581,3.08487],[101.95844,3.08422],[101.95848,3.08355],[101.95846,3.08237],[101.95843,3.08162],[101.9586,3.0812],[101.95897,3.08068],[101.95953,3.07998],[101.96005,3.07958],[101.96068,3.07925],[101.96128,3.07884],[101.96196,3.07817],[101.96236,3.0774],[101.96258,3.07675],[101.96271,3.07602],[101.96266,3.07508],[101.96262,3.07436],[101.96247,3.0738],[101.96219,3.07312],[101.96203,3.07231],[101.9622,3.07145],[101.96198,3.07093],[101.96168,3.07052],[101.96157,3.07],[101.9617,3.06873],[101.96176,3.06822],[101.96165,3.06762],[101.96133,3.067],[101.9608,3.06647],[101.96018,3.06578],[101.95972,3.06521],[101.95952,3.06464],[101.95965,3.06408],[101.95954,3.06293],[101.95938,3.06252],[101.95933,3.0621],[101.95954,3.06178],[101.95994,3.06152],[101.96042,3.06129],[101.96098,3.06091],[101.96144,3.06098],[101.9619,3.06101],[101.96235,3.06086],[101.96261,3.06048],[101.96266,3.06018],[101.96288,3.05971],[101.96337,3.05917],[101.96461,3.05817],[101.96557,3.05757],[101.96737,3.05708],[101.96678,3.05607],[101.96654,3.05534],[101.96611,3.05491],[101.96509,3.05389],[101.96447,3.05281],[101.96423,3.05217],[101.9644,3.05181],[101.96454,3.05133],[101.96472,3.05069],[101.96485,3.05024],[101.96492,3.05009],[101.96503,3.04982],[101.96504,3.04888],[101.96533,3.04811],[101.96611,3.04741],[101.96666,3.04689],[101.96734,3.04606],[101.96773,3.04516],[101.96741,3.04414],[101.96716,3.04255],[101.9672,3.04193],[101.96771,3.04111],[101.96803,3.04012],[101.96811,3.03939],[101.968,3.03852],[101.96772,3.03754],[101.96782,3.03687],[101.9685,3.03623],[101.96882,3.03545],[101.96881,3.03319],[101.96861,3.03253],[101.96861,3.03195],[101.96869,3.03105],[101.96914,3.03046],[101.96967,3.02992],[101.96981,3.02916],[101.96856,3.02655],[101.96813,3.02526],[101.96775,3.02555],[101.96702,3.02585],[101.96599,3.02592],[101.96494,3.02615],[101.96437,3.02613],[101.96374,3.02575],[101.96285,3.02474],[101.96194,3.02419],[101.96153,3.02421],[101.96128,3.02459],[101.9609,3.02494],[101.96026,3.02516],[101.95723,3.02568],[101.95617,3.02571],[101.95528,3.0256],[101.95471,3.02507],[101.95417,3.02387],[101.95378,3.02351],[101.95194,3.02303],[101.9514,3.02238],[101.95094,3.02155],[101.94934,3.01974],[101.9481,3.0181],[101.9478,3.01743],[101.9474,3.01682],[101.94662,3.0162],[101.9454,3.01567],[101.94455,3.01632],[101.94389,3.01633],[101.94172,3.01626],[101.94115,3.01604],[101.9405,3.01558],[101.93987,3.01477],[101.93965,3.01373],[101.93994,3.01203],[101.94042,3.01106],[101.94118,3.00933],[101.94178,3.00843],[101.94241,3.00826],[101.9428,3.00814],[101.94319,3.00787],[101.94342,3.00742],[101.94319,3.0067],[101.94301,3.00566],[101.94297,3.00452],[101.94283,3.00404],[101.94241,3.00344],[101.94095,3.00132],[101.94056,2.99943],[101.94029,2.99871],[101.93995,2.9983],[101.93955,2.99805],[101.93894,2.99805],[101.93693,2.99833],[101.93471,2.99871],[101.93403,2.99871],[101.93337,2.99869],[101.93273,2.99862],[101.93217,2.99829],[101.93179,2.99782],[101.93145,2.99726],[101.93135,2.99636],[101.93127,2.99557],[101.93127,2.99478],[101.93142,2.99388],[101.93155,2.99332],[101.93155,2.99271],[101.9315,2.99205],[101.93141,2.99191],[101.93109,2.99158],[101.93069,2.99104],[101.93033,2.9905],[101.93003,2.98999],[101.92979,2.98922],[101.92959,2.98686],[101.92967,2.98571],[101.92976,2.98486],[101.92994,2.98401],[101.93036,2.98234],[101.92998,2.97915],[101.92983,2.97867],[101.92772,2.97678],[101.92621,2.97621],[101.92518,2.9753],[101.92416,2.97361],[101.9241,2.97181],[101.92369,2.96871],[101.92009,2.95988],[101.91948,2.95828],[101.91875,2.9574],[101.91851,2.95697],[101.91822,2.95612],[101.91803,2.95576],[101.9176,2.95497],[101.9175,2.95474],[101.91702,2.9527],[101.91666,2.9514],[101.9165,2.95104],[101.91629,2.95054],[101.91581,2.94924],[101.91268,2.94174],[101.912,2.94001],[101.9115,2.93845],[101.91132,2.93849],[101.91095,2.93819],[101.91053,2.93675],[101.90998,2.93545],[101.89894,2.90782],[101.89724,2.90369],[101.89532,2.89868],[101.89271,2.89254],[101.8912,2.88867],[101.88902,2.88336],[101.8845,2.87225],[101.88368,2.87003],[101.88184,2.8661],[101.88143,2.86619],[101.881,2.86622],[101.87908,2.86632],[101.87097,2.86652],[101.86938,2.86664],[101.86859,2.86669],[101.86807,2.86674],[101.86412,2.86682],[101.85744,2.86694],[101.84612,2.86757],[101.84062,2.86782],[101.81886,2.86826],[101.81581,2.86834],[101.80761,2.86867],[101.7981,2.869],[101.79646,2.86905],[101.7944,2.86911],[101.79244,2.86917],[101.7896,2.86925],[101.78888,2.87122],[101.78779,2.87332],[101.78702,2.87432],[101.78494,2.8764],[101.78383,2.87724],[101.78256,2.8781],[101.77994,2.87955],[101.77496,2.88196],[101.77282,2.8829],[101.77068,2.88412],[101.7699,2.88471],[101.76935,2.8852],[101.7688,2.88574],[101.76803,2.88689],[101.7673,2.88846],[101.76699,2.8894],[101.76686,2.8899],[101.76683,2.89029],[101.7668,2.89163],[101.76667,2.898],[101.76653,2.90182],[101.76642,2.90339],[101.76628,2.90408],[101.76606,2.90477],[101.76573,2.9055],[101.7652,2.90657],[101.76483,2.90718],[101.76432,2.90785],[101.76388,2.90836],[101.76373,2.90853],[101.76193,2.91017],[101.76125,2.91066],[101.76048,2.91112],[101.75953,2.91166],[101.75887,2.9121],[101.75818,2.91268],[101.75754,2.9135],[101.75722,2.91412],[101.75713,2.9143],[101.7571,2.91454],[101.75665,2.91541],[101.75638,2.91618],[101.75612,2.91714],[101.75598,2.91836],[101.75595,2.91892],[101.75603,2.9195],[101.75617,2.9211],[101.75675,2.92377],[101.75694,2.92482],[101.75704,2.92593],[101.75706,2.9267],[101.75699,2.92755],[101.75691,2.92791],[101.75681,2.92835],[101.7566,2.92897],[101.75654,2.92918],[101.75645,2.92948],[101.75539,2.93229],[101.75367,2.93647],[101.75264,2.9395],[101.7518,2.94397],[101.75176,2.94592],[101.75167,2.94932],[101.75121,2.95128],[101.75034,2.95358],[101.74969,2.95486],[101.74919,2.95582],[101.74729,2.95886],[101.74643,2.95994],[101.74566,2.96097],[101.74503,2.96217],[101.74383,2.9651],[101.74284,2.968],[101.74243,2.97141],[101.74244,2.97714],[101.74244,2.97787],[101.74239,2.97887],[101.74229,2.97979],[101.7421,2.98128],[101.74215,2.98192],[101.74169,2.98332],[101.74148,2.98382],[101.74066,2.98546],[101.7403,2.98581],[101.73867,2.98858],[101.7375,2.99069],[101.73639,2.99307],[101.73579,2.99419],[101.73536,2.99456],[101.73399,2.99533],[101.73312,2.99609],[101.73236,2.99703],[101.73125,2.99823],[101.7284,3.00058],[101.72638,3.00276],[101.72567,3.00363],[101.72239,3.0094],[101.72088,3.01176],[101.72414,3.01369],[101.72383,3.01518],[101.72566,3.01876],[101.7258,3.01904],[101.72841,3.02407],[101.72895,3.02414],[101.72979,3.02658],[101.72986,3.02893],[101.73013,3.02954],[101.73064,3.03031],[101.73089,3.03088],[101.73094,3.0313],[101.73065,3.03517],[101.73051,3.0376],[101.73052,3.04008],[101.73051,3.04266],[101.73052,3.05489],[101.73805,3.05486],[101.74427,3.05487],[101.74958,3.05503],[101.7496,3.05776],[101.74962,3.06096],[101.74964,3.06417],[101.7501,3.07306],[101.74873,3.07377],[101.74953,3.07545],[101.74956,3.07631],[101.74775,3.0763],[101.7478,3.07844],[101.74781,3.07869],[101.74664,3.08019],[101.74609,3.08088],[101.74555,3.08177],[101.74576,3.08195],[101.74585,3.08234],[101.74575,3.08282],[101.74575,3.08282],[101.74557,3.08334],[101.74499,3.08398],[101.7449,3.0841],[101.74485,3.08424],[101.74481,3.08459],[101.74484,3.08477],[101.74487,3.08492],[101.74497,3.08521],[101.74507,3.08598],[101.74507,3.08619],[101.74576,3.0869],[101.7462,3.08735],[101.74633,3.08748],[101.74821,3.0894],[101.75116,3.09227],[101.75173,3.09636],[101.75191,3.09657],[101.7524,3.09712],[101.75263,3.0973],[101.75065,3.10153],[101.75361,3.10333],[101.75318,3.10414],[101.75351,3.10445],[101.75171,3.10754],[101.75026,3.10848],[101.74927,3.10912],[101.74686,3.10994],[101.74767,3.11108],[101.74566,3.11025],[101.74528,3.11036],[101.74559,3.11123],[101.7448,3.1115],[101.74407,3.1097],[101.74266,3.11005],[101.74115,3.10994],[101.7401,3.1114],[101.73995,3.11126],[101.73957,3.11179],[101.73931,3.11215],[101.73885,3.1125],[101.73807,3.1136],[101.73853,3.1149],[101.73748,3.11599],[101.73766,3.11635],[101.73858,3.11658],[101.73831,3.11737],[101.7378,3.11733],[101.73756,3.11763],[101.73883,3.11788],[101.73937,3.11874],[101.73924,3.11964],[101.74053,3.12146],[101.74043,3.12263],[101.7407,3.12351],[101.74089,3.12413],[101.73873,3.12897],[101.7365,3.13399],[101.73551,3.13419],[101.73559,3.13445],[101.73535,3.13544],[101.73503,3.13559],[101.73539,3.13654],[101.73627,3.13887],[101.73956,3.14179],[101.7404,3.14355],[101.7389,3.14453],[101.74084,3.14736],[101.74165,3.1484],[101.7406,3.14858],[101.74068,3.15087],[101.74222,3.15065],[101.74231,3.1504],[101.74472,3.15003],[101.74678,3.14958],[101.74686,3.15136],[101.74685,3.15208],[101.74716,3.15366],[101.74781,3.15361],[101.74816,3.15344],[101.75035,3.15761],[101.74913,3.15828],[101.74906,3.15861],[101.75093,3.16045],[101.75133,3.16134],[101.75387,3.16104],[101.75497,3.16073],[101.75706,3.16052],[101.75825,3.16057],[101.75935,3.16095],[101.76149,3.16183],[101.7616,3.15982],[101.76324,3.15951],[101.76409,3.15935],[101.76695,3.15889],[101.76705,3.15793],[101.76721,3.15669],[101.76741,3.1559],[101.76774,3.15478],[101.7682,3.15317],[101.76842,3.1524],[101.77122,3.15054],[101.77232,3.15225],[101.77326,3.15227],[101.77932,3.1482],[101.78145,3.1511],[101.78585,3.15718],[101.78801,3.15851],[101.79464,3.1528],[101.79769,3.15022],[101.79887,3.15047],[101.8016,3.14888],[101.80268,3.1504],[101.80284,3.15094],[101.80348,3.15188],[101.80696,3.15277],[101.80809,3.15306],[101.80991,3.15222],[101.81162,3.15641],[101.81182,3.15763],[101.8117,3.15911],[101.81129,3.16056],[101.81015,3.16184],[101.80994,3.16191],[101.80955,3.16307],[101.80853,3.16656],[101.80781,3.16865],[101.80614,3.1723],[101.80606,3.17249],[101.80524,3.17355],[101.80446,3.1749],[101.80379,3.17673],[101.80283,3.17866],[101.80476,3.17993],[101.80393,3.18198],[101.80251,3.18454],[101.80278,3.18605],[101.80364,3.18803],[101.80601,3.19145],[101.80688,3.19308],[101.80776,3.19406],[101.80844,3.19679],[101.80891,3.19816],[101.80975,3.19933],[101.81006,3.20069],[101.81014,3.20191],[101.81036,3.20247],[101.81114,3.20313],[101.81204,3.2036],[101.81259,3.20452],[101.81275,3.20604],[101.81285,3.20756],[101.81306,3.21068],[101.81199,3.21365],[101.81143,3.21463],[101.8114,3.21651],[101.81243,3.21732],[101.81309,3.21871],[101.81392,3.2196],[101.81525,3.22078],[101.81554,3.22134],[101.81561,3.22264],[101.81627,3.22354],[101.81715,3.22534],[101.81714,3.22698],[101.81707,3.22758],[101.81649,3.22876],[101.81721,3.22982],[101.81796,3.23075],[101.81865,3.23273],[101.81991,3.23346],[101.82158,3.23494],[101.82244,3.23651],[101.82298,3.23781],[101.824,3.24011],[101.82447,3.24136],[101.82535,3.24248],[101.82663,3.24355],[101.82721,3.24478],[101.82822,3.2461],[101.8287,3.24685],[101.82927,3.24813],[101.82992,3.24873],[101.83038,3.24946],[101.83069,3.25009],[101.83064,3.25069],[101.83014,3.25136],[101.83004,3.25173],[101.8305,3.2522],[101.83098,3.25232],[101.83138,3.2523],[101.83153,3.25248],[101.83153,3.253],[101.83143,3.25342],[101.8312,3.25577],[101.83075,3.25685],[101.83071,3.25735],[101.83079,3.2579],[101.83151,3.25879],[101.83201,3.25925],[101.83277,3.25932],[101.83311,3.25949],[101.83342,3.25978],[101.83363,3.26001],[101.83386,3.26026],[101.83425,3.26069],[101.83459,3.26127],[101.83505,3.26187],[101.83542,3.26213],[101.836,3.26186],[101.83652,3.26228],[101.83708,3.26283],[101.83742,3.26298],[101.83827,3.26326],[101.8386,3.26357],[101.83898,3.26431],[101.83929,3.2645],[101.83962,3.26448],[101.84,3.26428],[101.84027,3.26423],[101.84055,3.26437],[101.8418,3.26676],[101.84278,3.26772],[101.84307,3.26823],[101.84375,3.27017],[101.8441,3.27075],[101.84415,3.27114],[101.84418,3.27206],[101.8443,3.27224],[101.84452,3.27242],[101.84482,3.27251],[101.84519,3.27251],[101.84695,3.27227],[101.84893,3.27168],[101.8496,3.27173],[101.85022,3.27188],[101.85064,3.27225],[101.8519,3.27317],[101.85244,3.27374],[101.85312,3.27481],[101.85338,3.2753],[101.85369,3.2758]]]]}}]}