{"type":"FeatureCollection","meta":{"source":"HydroSHEDS HydroBASINS · Asia level 8 (hybas_as_lev08_v1c)","url":"https://www.hydrosheds.org/products/hydrobasins","licence":"CC BY 4.0 · WWF / USGS","basin":"Sungai Langat","hybas_id":4080020780,"main_bas":4080020780,"area_km2":2140.3,"simplify_m":22,"note":"Catchment of Sungai Langat: the land whose run-off reaches the river. Delineated by HydroSHEDS from 15 arc-second flow direction, so the area differs a little from the figure DID quotes. Simplified to about 22 m."},"features":[{"type":"Feature","properties":{"name":"Sungai Langat","hybas_id":4080020780,"area_km2":2140.3,"bbox":[101.38382,2.68333,101.99583,3.27917]},"geometry":{"type":"MultiPolygon","coordinates":[[[[101.725,2.99583],[101.72832,2.99668],[101.72973,3.00221],[101.73277,3.00612],[101.73333,3.0125],[101.73391,3.07408],[101.74082,3.07585],[101.74223,3.08138],[101.74943,3.08946],[101.75,3.09167],[101.75221,3.09223],[101.75737,3.09623],[101.75924,3.10353],[101.77721,3.10473],[101.79076,3.11731],[101.79223,3.12304],[101.79527,3.12696],[101.7964,3.13138],[101.79943,3.13529],[101.80066,3.1491],[101.80767,3.1509],[101.80869,3.16076],[101.81215,3.16424],[101.81285,3.17671],[101.80869,3.18091],[101.80798,3.19755],[101.81215,3.20174],[101.81307,3.21888],[101.8161,3.22279],[101.81723,3.23138],[101.82443,3.23946],[101.82557,3.24804],[101.83277,3.25612],[101.83418,3.26165],[101.83971,3.26307],[101.85326,3.27565],[101.85417,3.27917],[101.85659,3.27881],[101.86424,3.27119],[101.87742,3.27048],[101.88578,3.26215],[101.88992,3.26285],[101.89341,3.26631],[101.90833,3.26667],[101.90833,3.2625],[101.92399,3.26188],[101.93277,3.25221],[101.9339,3.24779],[101.94527,3.23554],[101.9464,3.20612],[101.95057,3.20075],[101.94943,3.19362],[101.9411,3.18427],[101.94223,3.17696],[101.94943,3.16888],[101.95071,3.15922],[101.95762,3.15745],[101.9589,3.14779],[101.96193,3.14388],[101.9625,3.1375],[101.96215,3.11424],[101.95869,3.11076],[101.95833,3.1],[101.95869,3.09341],[101.96215,3.08992],[101.96285,3.08091],[101.96631,3.07742],[101.96702,3.03508],[101.97048,3.03159],[101.97083,3.025],[101.96008,3.02465],[101.95452,3.01912],[101.95417,3.01667],[101.95,3.01667],[101.94758,3.01631],[101.94202,3.01079],[101.94101,3.0009],[101.93397,2.99909],[101.93277,2.98112],[101.92557,2.97304],[101.925,2.97083],[101.92597,2.96706],[101.93112,2.96307],[101.93971,2.96193],[101.94362,2.9589],[101.94915,2.95748],[101.95097,2.9504],[101.95612,2.9464],[101.96888,2.94527],[101.97279,2.94223],[101.97877,2.9407],[101.98277,2.93554],[101.9839,2.92696],[101.98693,2.92304],[101.98809,2.87175],[101.99498,2.86998],[101.99583,2.86667],[101.99583,2.85],[101.99233,2.8491],[101.9911,2.83529],[101.9871,2.83013],[101.98112,2.8286],[101.97597,2.8246],[101.97443,2.81862],[101.96987,2.81316],[101.9625,2.8125],[101.96161,2.82125],[101.95213,2.81314],[101.94167,2.8125],[101.94131,2.79755],[101.92255,2.77881],[101.91424,2.77952],[101.90624,2.7875],[101.89202,2.77326],[101.89131,2.76841],[101.88785,2.76492],[101.88715,2.72255],[101.88159,2.71702],[101.875,2.71667],[101.87154,2.71578],[101.87012,2.70505],[101.86667,2.70417],[101.8593,2.70346],[101.85739,2.69662],[101.84946,2.69523],[101.84242,2.70044],[101.83411,2.69922],[101.83273,2.68949],[101.82898,2.68444],[101.825,2.68333],[101.82258,2.68369],[101.81492,2.69131],[101.8125,2.69167],[101.81193,2.70221],[101.80473,2.71029],[101.80327,2.71601],[101.78946,2.71723],[101.78542,2.72036],[101.78138,2.71723],[101.77009,2.7161],[101.76471,2.72027],[101.76029,2.7214],[101.75221,2.7286],[101.75,2.72917],[101.74965,2.73576],[101.74619,2.73924],[101.74583,2.74583],[101.73529,2.74527],[101.73125,2.74214],[101.72721,2.74527],[101.72279,2.7464],[101.71888,2.74943],[101.71446,2.75057],[101.7093,2.75456],[101.70748,2.76165],[101.70196,2.76307],[101.69792,2.7662],[101.69388,2.76307],[101.68112,2.76193],[101.67721,2.7589],[101.67083,2.75833],[101.67022,2.74784],[101.66188,2.73824],[101.66312,2.73534],[101.66728,2.72964],[101.66557,2.72022],[101.65617,2.72145],[101.65047,2.72562],[101.63951,2.72438],[101.63549,2.72145],[101.62564,2.72002],[101.625,2.6875],[101.61744,2.68827],[101.61595,2.70283],[101.61218,2.70481],[101.60544,2.70003],[101.59555,2.70083],[101.59936,2.7062],[101.60064,2.70897],[101.59119,2.72001],[101.57884,2.72148],[101.57297,2.71731],[101.56763,2.7157],[101.56565,2.70913],[101.5562,2.70769],[101.55213,2.70481],[101.5312,2.70352],[101.52713,2.70064],[101.52051,2.69936],[101.51463,2.70352],[101.50909,2.70519],[101.50769,2.7173],[101.51602,2.72703],[101.51746,2.73649],[101.52297,2.73814],[101.53221,2.74606],[101.53398,2.75272],[101.5258,2.75518],[101.52436,2.76463],[101.52148,2.7687],[101.52083,2.77083],[101.51867,2.77022],[101.51366,2.76655],[101.51162,2.75943],[101.5076,2.75772],[101.49799,2.76605],[101.49536,2.76728],[101.48966,2.76312],[101.48426,2.76157],[101.48199,2.75365],[101.47053,2.75507],[101.47438,2.76034],[101.47562,2.7674],[101.46722,2.77708],[101.47022,2.78117],[101.47145,2.78549],[101.47444,2.78958],[101.47145,2.79367],[101.47022,2.80633],[101.46728,2.81034],[101.46667,2.8125],[101.45174,2.81215],[101.44619,2.80662],[101.44548,2.80174],[101.4271,2.78333],[101.42326,2.78715],[101.42083,2.7875],[101.42027,2.78971],[101.41627,2.79487],[101.40918,2.79668],[101.40833,2.8],[101.40775,2.81053],[101.39641,2.8228],[101.39525,2.8272],[101.38808,2.8353],[101.38692,2.84386],[101.38382,2.84793],[101.39525,2.8603],[101.39641,2.8647],[101.39942,2.86864],[101.40058,2.8897],[101.40359,2.89364],[101.40475,2.89803],[101.40775,2.90197],[101.40891,2.90636],[101.41192,2.9103],[101.41318,2.92413],[101.41958,2.92558],[101.42141,2.91864],[101.42442,2.9147],[101.4259,2.90908],[101.43422,2.90775],[101.44364,2.91609],[101.44913,2.91754],[101.45058,2.92303],[101.46192,2.9353],[101.46308,2.94672],[101.45465,2.95624],[101.45775,2.9603],[101.45891,2.96886],[101.46192,2.9728],[101.46308,2.98136],[101.46609,2.9853],[101.46667,2.9875],[101.46909,2.98715],[101.47258,2.98369],[101.4875,2.98333],[101.49148,2.98222],[101.49529,2.97708],[101.49106,2.97137],[101.4925,2.96322],[101.50634,2.9619],[101.51033,2.95894],[101.5125,2.95833],[101.52721,2.95777],[101.53112,2.95473],[101.53691,2.95325],[101.5375,2.92917],[101.53963,2.92852],[101.54787,2.92148],[101.5563,2.92019],[101.56037,2.91731],[101.57825,2.91602],[101.57917,2.925],[101.58138,2.92557],[101.58596,2.92912],[101.59943,2.91471],[101.60121,2.90777],[101.61054,2.9089],[101.62279,2.92027],[101.62721,2.9214],[101.63259,2.92557],[101.64494,2.92433],[101.64619,2.91841],[101.64965,2.91492],[101.65,2.9125],[101.66159,2.91312],[101.66307,2.91888],[101.6661,2.92279],[101.66738,2.93245],[101.67415,2.93418],[101.67557,2.93971],[101.68287,2.94791],[101.6786,2.95342],[101.67973,2.96471],[101.68277,2.96862],[101.68395,2.99068],[101.68946,2.99527],[101.69167,2.99583],[101.725,2.99583]]]]}}]}