{"type": "FeatureCollection", "name": "sungai_langat", "features": [{"type": "Feature", "properties": {"name": "Sungai Langat", "osm_id": 23127465, "waterway": "river", "width": null}, "geometry": {"type": "LineString", "coordinates": [[101.78499, 2.99382], [101.78534, 2.99343], [101.78655, 2.99113], [101.7868, 2.99091], [101.78699, 2.99073], [101.78709, 2.99028], [101.78734, 2.98932], [101.78735, 2.98896], [101.78721, 2.98868], [101.78701, 2.98829], [101.78661, 2.98789], [101.7863, 2.98741], [101.78617, 2.9871], [101.7861, 2.98688], [101.7861, 2.98669], [101.78615, 2.98645], [101.78623, 2.98615], [101.78654, 2.98514], [101.78661, 2.98487], [101.78663, 2.98462], [101.78662, 2.98425], [101.78667, 2.98345], [101.78663, 2.98263], [101.78638, 2.98147], [101.78613, 2.98092], [101.78577, 2.98052], [101.78522, 2.98007], [101.7851, 2.97991], [101.78496, 2.97961], [101.78474, 2.97889], [101.78463, 2.97802], [101.78454, 2.97745], [101.78443, 2.97716], [101.78444, 2.97685], [101.7845, 2.97654], [101.78478, 2.97588], [101.78496, 2.9755], [101.78527, 2.97508], [101.78538, 2.97469], [101.78535, 2.97374], [101.78535, 2.97313], [101.78534, 2.97241], [101.78527, 2.97186], [101.78528, 2.97162], [101.78534, 2.97137], [101.78549, 2.97119], [101.78571, 2.97111], [101.78606, 2.97104], [101.78653, 2.97103], [101.78681, 2.97096], [101.78701, 2.97085], [101.78715, 2.97065], [101.78735, 2.97021], [101.78741, 2.96987], [101.78759, 2.96924], [101.78761, 2.9687], [101.78767, 2.96839], [101.78735, 2.96743], [101.78678, 2.96638], [101.78649, 2.96608], [101.78611, 2.96601], [101.7858, 2.96598], [101.78549, 2.96578], [101.78402, 2.96421], [101.78364, 2.96397], [101.78345, 2.9636], [101.78322, 2.96244], [101.7833, 2.96187], [101.78369, 2.96036], [101.78355, 2.9588], [101.78365, 2.95694], [101.78362, 2.95661], [101.78356, 2.95597], [101.78369, 2.95559], [101.78414, 2.95525], [101.78457, 2.95492], [101.78481, 2.95455], [101.78496, 2.95351], [101.78505, 2.95317], [101.78525, 2.95276], [101.78546, 2.95235], [101.78552, 2.95183], [101.78539, 2.95152], [101.78494, 2.95072], [101.7843, 2.94973], [101.78409, 2.94936], [101.78383, 2.94825], [101.78382, 2.94709], [101.78387, 2.94583], [101.78403, 2.94439], [101.78408, 2.94275], [101.78416, 2.94246], [101.7841, 2.94156], [101.78409, 2.9405], [101.78431, 2.93982], [101.78439, 2.93956], [101.78445, 2.9393], [101.78448, 2.93908], [101.78448, 2.93886], [101.78445, 2.93864], [101.78441, 2.93848], [101.7843, 2.93833], [101.78421, 2.93825], [101.78398, 2.93811], [101.78386, 2.93802], [101.78371, 2.93789], [101.78358, 2.93774], [101.78347, 2.93762], [101.78324, 2.93751], [101.78301, 2.93744], [101.78288, 2.93738], [101.78268, 2.93726], [101.78238, 2.93702], [101.78203, 2.93676], [101.78118, 2.93609], [101.78067, 2.93526], [101.77986, 2.93425], [101.77921, 2.93371], [101.77823, 2.93326], [101.77586, 2.93169], [101.7751, 2.93117], [101.77405, 2.93045], [101.77154, 2.92887], [101.77061, 2.9281], [101.77024, 2.92785], [101.76951, 2.92736], [101.76915, 2.92712], [101.76865, 2.92683], [101.76841, 2.92672], [101.7682, 2.92658], [101.76778, 2.92615], [101.76753, 2.92583], [101.76717, 2.92552], [101.76668, 2.92513], [101.76642, 2.92495], [101.76617, 2.92481], [101.76591, 2.92473], [101.76546, 2.92459], [101.76522, 2.92454], [101.76493, 2.92452], [101.76452, 2.92451]]}}, {"type": "Feature", "properties": {"name": "Sungai Langat", "osm_id": 29211467, "waterway": "river", "width": null}, "geometry": {"type": "LineString", "coordinates": [[101.70008, 2.89216], [101.69932, 2.89246], [101.69888, 2.89257], [101.69812, 2.89262], [101.69785, 2.89261], [101.69723, 2.8926], [101.69646, 2.89301], [101.69589, 2.89304], [101.69499, 2.89299], [101.69463, 2.89284], [101.69411, 2.89253], [101.69356, 2.89226], [101.69314, 2.89203], [101.69268, 2.89189], [101.6922, 2.89193], [101.69172, 2.89216], [101.69141, 2.8924], [101.691, 2.89272], [101.69056, 2.89286], [101.69009, 2.89282], [101.68966, 2.89258], [101.68921, 2.89226], [101.68908, 2.89218], [101.68882, 2.89204], [101.68862, 2.89167], [101.68856, 2.89133], [101.68862, 2.89098], [101.68873, 2.89063], [101.68893, 2.89019], [101.68905, 2.88948], [101.68905, 2.88905], [101.68888, 2.88859], [101.68856, 2.88823], [101.68832, 2.88791], [101.68799, 2.88738], [101.6879, 2.88668], [101.68783, 2.88567], [101.68772, 2.88507], [101.68749, 2.88414], [101.6874, 2.88381], [101.68706, 2.88328], [101.68623, 2.8825], [101.68534, 2.88138], [101.68455, 2.88068], [101.68379, 2.87964], [101.68252, 2.87791], [101.68172, 2.8763], [101.68132, 2.87544], [101.68085, 2.87383], [101.6808, 2.87315], [101.68096, 2.87225], [101.6809, 2.87101], [101.68101, 2.87066], [101.68129, 2.87016], [101.68169, 2.86961], [101.68169, 2.8693], [101.68149, 2.86808], [101.68169, 2.86776], [101.68204, 2.86752], [101.68249, 2.86749], [101.68314, 2.8663], [101.68404, 2.86534], [101.68425, 2.86485], [101.68431, 2.86405], [101.68434, 2.86381], [101.6844, 2.86358], [101.6847, 2.86309], [101.68477, 2.86291], [101.68482, 2.86273], [101.68482, 2.86253], [101.68481, 2.86229], [101.68474, 2.86194], [101.68464, 2.86159], [101.68449, 2.86131], [101.68415, 2.86072], [101.6839, 2.86013], [101.68386, 2.85998], [101.6838, 2.85971], [101.68371, 2.85884], [101.6837, 2.85844], [101.68372, 2.8576], [101.68371, 2.85715], [101.68369, 2.85701], [101.68365, 2.85679], [101.68358, 2.85663], [101.6835, 2.85651], [101.6834, 2.85638], [101.68328, 2.85627], [101.68314, 2.85619], [101.68297, 2.8561], [101.68282, 2.85605], [101.68253, 2.85596], [101.68225, 2.8559], [101.68201, 2.85583], [101.68182, 2.85575], [101.68173, 2.85566], [101.68054, 2.85368], [101.68023, 2.85318], [101.67948, 2.85224], [101.67864, 2.85086], [101.67856, 2.8505], [101.67842, 2.84984], [101.67843, 2.8497], [101.67848, 2.84899], [101.67829, 2.84769], [101.67773, 2.84636], [101.67786, 2.84483], [101.6777, 2.84293], [101.67828, 2.84206], [101.67924, 2.84117], [101.67919, 2.83997], [101.67927, 2.83893], [101.67914, 2.83774], [101.67901, 2.83697], [101.67874, 2.83641], [101.67858, 2.83613], [101.67839, 2.83586], [101.67797, 2.83542], [101.67739, 2.83492], [101.6771, 2.8346], [101.67692, 2.83415], [101.67629, 2.83336], [101.67559, 2.83328], [101.67459, 2.83361], [101.67365, 2.83358], [101.67311, 2.83304], [101.67232, 2.83104], [101.6714, 2.82947], [101.67066, 2.82834], [101.66958, 2.82701], [101.66848, 2.82598], [101.66598, 2.82455], [101.66556, 2.82417], [101.66527, 2.82384], [101.66513, 2.82353], [101.66516, 2.82284], [101.66473, 2.82241], [101.66366, 2.82227], [101.66171, 2.82284], [101.66065, 2.82242], [101.6598, 2.82173], [101.65801, 2.82113], [101.65602, 2.82076], [101.65487, 2.82046], [101.6538, 2.81994], [101.65219, 2.8197], [101.6513, 2.81971], [101.65027, 2.81929], [101.64831, 2.81797], [101.64743, 2.81697], [101.64606, 2.81584], [101.64447, 2.81459], [101.64366, 2.81402], [101.64249, 2.81344], [101.64124, 2.81248], [101.64021, 2.81134], [101.63949, 2.81033], [101.63925, 2.80975], [101.63928, 2.80896], [101.63972, 2.80756], [101.63987, 2.8066], [101.63962, 2.80513], [101.63969, 2.80283], [101.63959, 2.80174], [101.6392, 2.80075], [101.6383, 2.7993], [101.6369, 2.79791], [101.63627, 2.79732], [101.63604, 2.79683], [101.63581, 2.7961], [101.63581, 2.79494], [101.63561, 2.79387], [101.63445, 2.79236], [101.63371, 2.79208], [101.63297, 2.79221], [101.63175, 2.79288], [101.6312, 2.79295], [101.63045, 2.79264], [101.62965, 2.79221], [101.62875, 2.79204], [101.62806, 2.79221], [101.62695, 2.79262], [101.62557, 2.79287], [101.62445, 2.79337], [101.62321, 2.79371], [101.62267, 2.7937], [101.62234, 2.79361], [101.6217, 2.79291], [101.62133, 2.79271], [101.62083, 2.7927], [101.61987, 2.79276], [101.61913, 2.79251], [101.61751, 2.79138], [101.61692, 2.79112], [101.61641, 2.79114], [101.61586, 2.79147], [101.61539, 2.79161], [101.615, 2.79153], [101.61477, 2.7912], [101.61473, 2.79086], [101.61448, 2.79046], [101.61318, 2.78983], [101.61196, 2.78989], [101.61099, 2.78994], [101.61, 2.79013], [101.60917, 2.79103], [101.60864, 2.79126], [101.60826, 2.79106], [101.60788, 2.79046], [101.60749, 2.79017], [101.60721, 2.79026], [101.60707, 2.79046], [101.60702, 2.79077], [101.60736, 2.79168], [101.60736, 2.79238], [101.607, 2.79346], [101.60642, 2.79436], [101.60592, 2.79503], [101.60558, 2.79562], [101.60571, 2.79632], [101.60595, 2.79678]]}}, {"type": "Feature", "properties": {"name": "Sungai Langat", "osm_id": 29211786, "waterway": "river", "width": null}, "geometry": {"type": "LineString", "coordinates": [[101.60595, 2.79678], [101.60665, 2.79749], [101.60677, 2.79792], [101.60666, 2.79828], [101.60639, 2.79862], [101.60598, 2.79903], [101.60489, 2.79951], [101.60324, 2.8001], [101.60128, 2.80109], [101.59999, 2.80099], [101.59863, 2.80055], [101.5982, 2.80056], [101.59783, 2.80076], [101.59707, 2.80147], [101.59637, 2.80182], [101.59544, 2.80222], [101.59469, 2.80281], [101.59349, 2.80441], [101.59296, 2.80462], [101.5923, 2.80457], [101.59207, 2.80429], [101.59191, 2.80391], [101.5923, 2.80211], [101.59198, 2.80134], [101.59152, 2.80051], [101.59116, 2.79989], [101.58935, 2.79826], [101.58815, 2.79804], [101.58752, 2.79845], [101.58721, 2.79931], [101.58716, 2.79943], [101.58707, 2.80141], [101.5878, 2.80276]]}}, {"type": "Feature", "properties": {"name": "Sungai Langat", "osm_id": 29212106, "waterway": "river", "width": null}, "geometry": {"type": "LineString", "coordinates": [[101.51935, 2.81475], [101.5153, 2.8145], [101.51319, 2.8136], [101.51147, 2.81263], [101.51097, 2.81264], [101.51049, 2.81286], [101.51031, 2.8133], [101.51041, 2.8139], [101.511, 2.81454], [101.51208, 2.81505], [101.51351, 2.81648], [101.51552, 2.8183], [101.51643, 2.81962], [101.51761, 2.82322], [101.51775, 2.82356], [101.51792, 2.82381], [101.51819, 2.82396], [101.51854, 2.824], [101.51879, 2.82395], [101.519, 2.82385], [101.51979, 2.8233], [101.52065, 2.8223], [101.52244, 2.82071], [101.52347, 2.82067], [101.52424, 2.821], [101.5248, 2.82229], [101.5265, 2.82838], [101.52775, 2.83144], [101.52785, 2.83243], [101.52751, 2.83298], [101.52657, 2.83344], [101.52323, 2.8342], [101.52151, 2.83446], [101.52006, 2.83435], [101.51778, 2.83391], [101.51683, 2.83391], [101.51641, 2.83458], [101.51657, 2.83575], [101.51732, 2.83712], [101.5176, 2.83793], [101.51742, 2.839], [101.51686, 2.8397], [101.5156, 2.84087], [101.51475, 2.84159], [101.51421, 2.84267], [101.51394, 2.84334], [101.51354, 2.84502], [101.5131, 2.84611], [101.51228, 2.84741], [101.51202, 2.848], [101.51204, 2.8489], [101.51223, 2.84947], [101.51262, 2.8501], [101.51277, 2.85035], [101.51378, 2.85084], [101.51447, 2.85106], [101.51527, 2.85131], [101.51594, 2.85161], [101.5161, 2.85197], [101.5161, 2.8524], [101.51592, 2.85288], [101.51563, 2.85324], [101.51446, 2.85379], [101.51127, 2.85498], [101.50804, 2.85644], [101.50594, 2.85715], [101.50547, 2.85725], [101.50279, 2.85729], [101.49962, 2.85709], [101.49827, 2.8568], [101.49516, 2.85587], [101.4941, 2.85569], [101.49298, 2.85564], [101.49067, 2.85642], [101.48763, 2.85756], [101.4866, 2.85768], [101.4859, 2.85769], [101.48517, 2.85746], [101.48408, 2.85674], [101.48302, 2.85597], [101.48266, 2.85566], [101.48218, 2.85558], [101.4816, 2.85571], [101.481, 2.85607], [101.48072, 2.85654], [101.48062, 2.85696], [101.48067, 2.85733], [101.48114, 2.85849], [101.48175, 2.85937], [101.48231, 2.85996], [101.48267, 2.86046], [101.48318, 2.86106], [101.48328, 2.86176], [101.48328, 2.86279], [101.48309, 2.86349], [101.48279, 2.86416], [101.48247, 2.86453], [101.48137, 2.86543], [101.48052, 2.86604], [101.47911, 2.86681], [101.47791, 2.8671], [101.47694, 2.86718], [101.47505, 2.86693], [101.47427, 2.86678], [101.47349, 2.86727], [101.47316, 2.86784], [101.47308, 2.86832], [101.47314, 2.86882], [101.4736, 2.86945], [101.47401, 2.86981], [101.47495, 2.87027], [101.47631, 2.87077], [101.47795, 2.87103], [101.47844, 2.87124], [101.47883, 2.87161], [101.4793, 2.87227], [101.47984, 2.87352], [101.48002, 2.87426], [101.48017, 2.87559], [101.48027, 2.87815], [101.48027, 2.87913], [101.48045, 2.87981], [101.48067, 2.8803], [101.48103, 2.88079], [101.48139, 2.88113], [101.4819, 2.88142], [101.48257, 2.88162], [101.48597, 2.88177], [101.48753, 2.88212], [101.48859, 2.88244], [101.48937, 2.88295], [101.48966, 2.88338], [101.48976, 2.88395], [101.48968, 2.88448], [101.48944, 2.88485], [101.48882, 2.8853], [101.48819, 2.88562], [101.48353, 2.88767], [101.4821, 2.88797]]}}, {"type": "Feature", "properties": {"name": "Sungai Langat", "osm_id": 143197600, "waterway": "river", "width": null}, "geometry": {"type": "LineString", "coordinates": [[101.54719, 2.81891], [101.54675, 2.81981], [101.54676, 2.82027], [101.54757, 2.82146], [101.54817, 2.82207], [101.5485, 2.82255], [101.54876, 2.82354], [101.54891, 2.82467], [101.54938, 2.82564], [101.54991, 2.82663], [101.55048, 2.82743], [101.55117, 2.82837], [101.55232, 2.82983], [101.55241, 2.83021], [101.55236, 2.83051], [101.55209, 2.83078], [101.55168, 2.83085], [101.55119, 2.83074], [101.55049, 2.83024], [101.54976, 2.82956], [101.54872, 2.82886], [101.54727, 2.82809], [101.54572, 2.82762], [101.545, 2.82713], [101.54393, 2.82576], [101.54257, 2.82448], [101.54148, 2.82381], [101.53972, 2.82292], [101.53775, 2.82223], [101.53608, 2.82185], [101.5349, 2.82139], [101.53424, 2.82089], [101.53408, 2.8201], [101.53427, 2.81913], [101.53525, 2.81723], [101.5366, 2.81512], [101.53766, 2.8137], [101.53803, 2.81301], [101.53794, 2.81255]]}}, {"type": "Feature", "properties": {"name": "Sungai Langat", "osm_id": 201239262, "waterway": "river", "width": null}, "geometry": {"type": "LineString", "coordinates": [[101.77251, 3.00593], [101.77259, 3.00522], [101.77289, 3.00454], [101.77314, 3.0038], [101.77327, 3.00359], [101.7739, 3.00293], [101.77438, 3.00233], [101.77559, 3.0009], [101.77607, 3.00005], [101.7773, 2.99851], [101.77778, 2.99778], [101.77802, 2.99742], [101.77877, 2.99657], [101.77974, 2.99548], [101.78, 2.99522], [101.78038, 2.99497], [101.78062, 2.99486], [101.78085, 2.99479], [101.78115, 2.99472], [101.78235, 2.99458], [101.78326, 2.99454], [101.7841, 2.99453], [101.7843, 2.9945], [101.78442, 2.99442], [101.78466, 2.99419], [101.78499, 2.99382]]}}, {"type": "Feature", "properties": {"name": "Sungai Langat (pintasan)", "osm_id": 236721186, "waterway": "river", "width": null}, "geometry": {"type": "LineString", "coordinates": [[101.56422, 2.81845], [101.5595, 2.81806], [101.55752, 2.81776]]}}, {"type": "Feature", "properties": {"name": "Sungai Langat", "osm_id": 236721254, "waterway": "river", "width": null}, "geometry": {"type": "LineString", "coordinates": [[101.58353, 2.81228], [101.58352, 2.81373], [101.58438, 2.8141], [101.58504, 2.8153], [101.58505, 2.81592], [101.58508, 2.81721], [101.5849, 2.8175], [101.58452, 2.81776], [101.58416, 2.81773], [101.58387, 2.81736], [101.58333, 2.81659], [101.5825, 2.81627], [101.58162, 2.81607], [101.57936, 2.81646], [101.5763, 2.81717]]}}, {"type": "Feature", "properties": {"name": "Sungai Langat", "osm_id": 305711024, "waterway": "river", "width": null}, "geometry": {"type": "LineString", "coordinates": [[101.74231, 2.90358], [101.742, 2.90298], [101.74176, 2.9027], [101.74142, 2.90247], [101.74095, 2.90224], [101.73992, 2.90186], [101.73963, 2.9016], [101.73933, 2.90109], [101.73914, 2.90071], [101.73885, 2.90021], [101.73844, 2.89964], [101.73801, 2.89924], [101.73685, 2.89849], [101.7363, 2.8982], [101.73599, 2.89768], [101.73566, 2.89729], [101.73534, 2.89706], [101.73486, 2.8963], [101.73444, 2.8959], [101.73407, 2.89566], [101.73372, 2.89549], [101.73322, 2.89551], [101.73215, 2.89564], [101.73181, 2.89561], [101.73035, 2.89548], [101.72936, 2.8956], [101.72912, 2.8957], [101.72883, 2.89593], [101.72818, 2.89681], [101.72785, 2.89694], [101.72691, 2.89688], [101.72644, 2.8968], [101.72609, 2.89655], [101.72553, 2.89635], [101.72494, 2.89632], [101.72361, 2.89643], [101.72226, 2.89599], [101.72177, 2.89594], [101.72134, 2.89607], [101.72056, 2.89651], [101.72006, 2.89674], [101.71965, 2.89678], [101.71754, 2.89622], [101.71707, 2.896], [101.71635, 2.8955], [101.71481, 2.89405], [101.71323, 2.89284], [101.71267, 2.89258], [101.71174, 2.89226], [101.71009, 2.89148], [101.70935, 2.89131], [101.70748, 2.89098], [101.70569, 2.89041], [101.70491, 2.89027], [101.70437, 2.89023], [101.70381, 2.89038], [101.70279, 2.89103], [101.70205, 2.89139], [101.70115, 2.89164], [101.70092, 2.89173], [101.70008, 2.89216]]}}, {"type": "Feature", "properties": {"name": "Sungai Langat (pintasan)", "osm_id": 404685971, "waterway": "river", "width": null}, "geometry": {"type": "LineString", "coordinates": [[101.54719, 2.81891], [101.54494, 2.81732], [101.54073, 2.81451], [101.53794, 2.81255]]}}, {"type": "Feature", "properties": {"name": "Sungai Langat", "osm_id": 478189120, "waterway": "river", "width": null}, "geometry": {"type": "LineString", "coordinates": [[101.55752, 2.81776], [101.55545, 2.81655], [101.55464, 2.81655], [101.55372, 2.81788], [101.5523, 2.81866]]}}, {"type": "Feature", "properties": {"name": "Sungai Langat (pintasan)", "osm_id": 478189124, "waterway": "river", "width": null}, "geometry": {"type": "LineString", "coordinates": [[101.58353, 2.81228], [101.58248, 2.81283], [101.58096, 2.81384], [101.5763, 2.81717]]}}, {"type": "Feature", "properties": {"name": "Sungai Langat", "osm_id": 491722215, "waterway": "river", "width": null}, "geometry": {"type": "LineString", "coordinates": [[101.88235, 3.21202], [101.88196, 3.21186], [101.88164, 3.21172], [101.88154, 3.21164], [101.88068, 3.2111], [101.87968, 3.21059], [101.87794, 3.21042], [101.87768, 3.21037], [101.87755, 3.21031], [101.87739, 3.21023], [101.87722, 3.21016], [101.87703, 3.21009], [101.87679, 3.21005], [101.87665, 3.21], [101.87654, 3.20995], [101.87636, 3.20985], [101.87621, 3.20974], [101.8761, 3.20964], [101.87604, 3.20957], [101.87591, 3.20948], [101.87578, 3.20939], [101.87561, 3.20931], [101.87551, 3.20925], [101.87545, 3.20925], [101.87537, 3.20925], [101.87523, 3.20928], [101.8751, 3.20934], [101.87501, 3.20943], [101.87487, 3.2095], [101.87479, 3.20955], [101.87466, 3.20957], [101.87445, 3.20953], [101.87419, 3.20952], [101.87394, 3.20952], [101.87374, 3.20952], [101.87354, 3.20952], [101.87338, 3.20954], [101.87323, 3.20959], [101.87315, 3.20964], [101.8731, 3.20974], [101.8731, 3.20986], [101.87307, 3.20998], [101.87302, 3.21004], [101.87284, 3.21013], [101.87277, 3.21021], [101.87261, 3.21029], [101.8724, 3.21041], [101.87226, 3.21047], [101.87211, 3.21049], [101.87193, 3.21049], [101.87174, 3.21056], [101.87155, 3.21062], [101.87137, 3.21068], [101.87113, 3.21074], [101.87095, 3.21079], [101.87072, 3.21085], [101.87051, 3.21084], [101.87035, 3.2108], [101.87022, 3.21077], [101.87005, 3.21072], [101.86988, 3.21069], [101.86974, 3.21066], [101.86961, 3.21067], [101.86944, 3.21071], [101.86931, 3.21071], [101.86912, 3.21073], [101.86896, 3.21072], [101.8688, 3.21067], [101.86863, 3.2106], [101.86848, 3.21052], [101.86834, 3.21042], [101.86824, 3.21035], [101.86811, 3.21033], [101.86794, 3.21027], [101.86781, 3.21017], [101.86768, 3.21006], [101.86757, 3.20997], [101.86747, 3.20985], [101.86735, 3.20974], [101.86722, 3.20964], [101.86711, 3.20953], [101.86701, 3.20944], [101.86681, 3.20933], [101.86661, 3.20924], [101.86642, 3.2091], [101.8662, 3.209], [101.86611, 3.20892], [101.86596, 3.20887], [101.86588, 3.20885], [101.86578, 3.20879], [101.86568, 3.20875], [101.8655, 3.20869], [101.8653, 3.20865], [101.86513, 3.2086], [101.86494, 3.20854], [101.86472, 3.20849], [101.86455, 3.20846], [101.8644, 3.20849], [101.86421, 3.20858], [101.8641, 3.20865], [101.86391, 3.20873], [101.86362, 3.20884], [101.8634, 3.20891], [101.8632, 3.20893], [101.86302, 3.20893], [101.86282, 3.20886], [101.86272, 3.20879], [101.86264, 3.20866], [101.86258, 3.2085], [101.8625, 3.20835], [101.86238, 3.20823], [101.86225, 3.20814], [101.8621, 3.20806], [101.8619, 3.20805], [101.86172, 3.20804], [101.86156, 3.20808], [101.86137, 3.20811], [101.86122, 3.20814], [101.86106, 3.20814], [101.86086, 3.20811], [101.86075, 3.20808], [101.86063, 3.20805], [101.8605, 3.20804], [101.86036, 3.20801], [101.8601, 3.20799], [101.8599, 3.208], [101.85976, 3.20796], [101.85965, 3.20786], [101.8596, 3.20774], [101.85956, 3.20756], [101.85958, 3.2074], [101.85964, 3.20724], [101.8597, 3.20707], [101.85973, 3.20687], [101.85974, 3.20666], [101.85971, 3.20653], [101.85965, 3.20637], [101.8596, 3.20625], [101.8595, 3.20605], [101.85943, 3.2059], [101.8594, 3.20576], [101.8594, 3.20564], [101.85921, 3.20527], [101.85919, 3.20503], [101.85911, 3.20485], [101.85904, 3.2046], [101.859, 3.20424], [101.859, 3.20409], [101.85893, 3.20382], [101.85889, 3.20363], [101.85883, 3.20338], [101.85875, 3.20314], [101.85869, 3.20295], [101.8586, 3.20272], [101.85858, 3.20265], [101.85852, 3.20248], [101.85844, 3.20232], [101.85841, 3.20217], [101.85834, 3.20207], [101.85827, 3.20188], [101.85818, 3.20167], [101.8581, 3.20155], [101.85799, 3.20144], [101.85792, 3.20122], [101.85786, 3.20103], [101.85782, 3.20081], [101.85777, 3.20055], [101.85768, 3.20034], [101.85761, 3.20016], [101.85754, 3.2], [101.85747, 3.19982], [101.85741, 3.19968], [101.85739, 3.19954], [101.85739, 3.19936], [101.85737, 3.19918], [101.85736, 3.19896], [101.85735, 3.1988], [101.85732, 3.19866], [101.85735, 3.19849], [101.85741, 3.19837], [101.85741, 3.1983], [101.85733, 3.1982], [101.85733, 3.19809], [101.85732, 3.19792], [101.85729, 3.19775], [101.85729, 3.19759], [101.8573, 3.1974], [101.85731, 3.19719], [101.85731, 3.19701], [101.85733, 3.19684], [101.85734, 3.19662], [101.85737, 3.19649], [101.85738, 3.19633], [101.85741, 3.19617], [101.85742, 3.19597], [101.85744, 3.19576], [101.85744, 3.19553], [101.85747, 3.19532], [101.85747, 3.19515], [101.85749, 3.19493], [101.85755, 3.19478], [101.85762, 3.19448], [101.85765, 3.19437], [101.8577, 3.19422], [101.85773, 3.19408], [101.85778, 3.1939], [101.85783, 3.19373], [101.85788, 3.19354], [101.85789, 3.19338], [101.85787, 3.19327], [101.85783, 3.19312], [101.85776, 3.19297], [101.85771, 3.19283], [101.85767, 3.19271], [101.85764, 3.19255], [101.85761, 3.19241], [101.85759, 3.19229], [101.85755, 3.19218], [101.85754, 3.19208], [101.85749, 3.19194], [101.85744, 3.19184], [101.85743, 3.19172], [101.8574, 3.19161], [101.85741, 3.19149], [101.85741, 3.19144], [101.85741, 3.19136], [101.8574, 3.19126], [101.8574, 3.19119], [101.85739, 3.1911], [101.85737, 3.19101], [101.85735, 3.19092], [101.85727, 3.19082], [101.85714, 3.19076], [101.857, 3.19073], [101.85684, 3.1907], [101.85667, 3.19057], [101.8565, 3.19045], [101.85641, 3.19037], [101.85622, 3.19029], [101.85608, 3.19022]]}}, {"type": "Feature", "properties": {"name": "Sungai Langat", "osm_id": 492941424, "waterway": "river", "width": null}, "geometry": {"type": "LineString", "coordinates": [[101.85608, 3.19022], [101.85571, 3.19004], [101.85551, 3.18994], [101.8554, 3.18987], [101.85532, 3.18979], [101.85526, 3.18971], [101.85524, 3.18963], [101.85529, 3.18956], [101.85537, 3.18948], [101.85555, 3.18934], [101.85576, 3.18921], [101.85593, 3.18909], [101.85615, 3.18895], [101.85633, 3.18881], [101.85649, 3.18865], [101.85661, 3.18849], [101.85669, 3.18829], [101.85674, 3.18809], [101.85677, 3.18788], [101.85677, 3.18772], [101.85677, 3.18754], [101.85682, 3.18742], [101.85687, 3.18729], [101.85697, 3.18714], [101.85712, 3.18695], [101.85726, 3.18681], [101.85745, 3.18668], [101.8576, 3.18659], [101.85784, 3.18654], [101.858, 3.18644], [101.85812, 3.18634], [101.8582, 3.18621], [101.8582, 3.1861], [101.85818, 3.18595], [101.8582, 3.18582], [101.85823, 3.18564], [101.85829, 3.18541], [101.85835, 3.18524], [101.85842, 3.185], [101.85849, 3.18478], [101.85856, 3.18463], [101.85862, 3.18446], [101.8587, 3.1843], [101.8588, 3.18414], [101.85889, 3.184], [101.85899, 3.1839], [101.85913, 3.18377], [101.85932, 3.18362], [101.85948, 3.18351], [101.85953, 3.1834], [101.85955, 3.18328], [101.85951, 3.18316], [101.85941, 3.18301], [101.85929, 3.18285], [101.85912, 3.18266], [101.85897, 3.18248], [101.85878, 3.18225], [101.85862, 3.18207], [101.85846, 3.18193], [101.85823, 3.18176], [101.85807, 3.18163], [101.85789, 3.18149], [101.85772, 3.18135], [101.85755, 3.18119], [101.85743, 3.18103], [101.85732, 3.18088], [101.85726, 3.18075], [101.8572, 3.1806], [101.85716, 3.18032], [101.85715, 3.18009], [101.85711, 3.17991], [101.85706, 3.17976], [101.85703, 3.17958], [101.85703, 3.17947], [101.85705, 3.17923], [101.85707, 3.17904], [101.8571, 3.17891], [101.85713, 3.17879], [101.85713, 3.17871], [101.85711, 3.17857], [101.85707, 3.17842], [101.85706, 3.17825], [101.85702, 3.17809], [101.85696, 3.17791], [101.85687, 3.17773], [101.85676, 3.17757], [101.85664, 3.17739], [101.85656, 3.1772], [101.85645, 3.17703], [101.85634, 3.17681], [101.85631, 3.17667], [101.85619, 3.17637], [101.856, 3.17617], [101.85588, 3.17597], [101.85576, 3.17574], [101.85566, 3.17559], [101.8555, 3.17543], [101.85535, 3.17519], [101.85527, 3.17503], [101.85515, 3.17483], [101.85506, 3.17466], [101.85504, 3.17463], [101.85501, 3.17455], [101.85495, 3.17437], [101.8549, 3.17416], [101.8548, 3.174], [101.85467, 3.17381], [101.85457, 3.17365], [101.85441, 3.17349], [101.85431, 3.17341], [101.85416, 3.17329], [101.85407, 3.1732], [101.85397, 3.17304], [101.85386, 3.1729], [101.85376, 3.17278], [101.8537, 3.17268], [101.85366, 3.17253], [101.85359, 3.17231], [101.85349, 3.17211], [101.85341, 3.17195], [101.85328, 3.17178], [101.85313, 3.17157], [101.853, 3.17139], [101.85284, 3.17116], [101.8527, 3.17093], [101.85259, 3.17075], [101.85249, 3.1706], [101.85226, 3.1702], [101.85212, 3.16991], [101.85208, 3.16965], [101.85201, 3.16932], [101.85189, 3.16901], [101.85173, 3.16869], [101.85141, 3.16817], [101.85107, 3.16774], [101.85068, 3.16731], [101.85033, 3.167], [101.84999, 3.1668], [101.84987, 3.16677], [101.84968, 3.16675], [101.84954, 3.16673], [101.84939, 3.16668], [101.84919, 3.16659], [101.84899, 3.16645], [101.84885, 3.16634], [101.84873, 3.16618], [101.84863, 3.16598], [101.84858, 3.16564], [101.84844, 3.16514], [101.84831, 3.1644], [101.84829, 3.16414], [101.8483, 3.16387], [101.84835, 3.16338], [101.84851, 3.16282], [101.84851, 3.16263], [101.8485, 3.16256], [101.84838, 3.16248], [101.84805, 3.16241], [101.84779, 3.1623], [101.84765, 3.16221], [101.84753, 3.16209], [101.84733, 3.16182], [101.84717, 3.16162], [101.84704, 3.16141], [101.84692, 3.1612], [101.8468, 3.16097], [101.84657, 3.16069], [101.84631, 3.16047], [101.84605, 3.16021], [101.84576, 3.15991], [101.84556, 3.15958], [101.84539, 3.15921], [101.84497, 3.1585], [101.84419, 3.15706], [101.8439, 3.15656], [101.84377, 3.15624], [101.84368, 3.15589], [101.84367, 3.15518], [101.84363, 3.15502], [101.84356, 3.15485], [101.84344, 3.15466], [101.84325, 3.15454], [101.84291, 3.15443], [101.84254, 3.15431], [101.84219, 3.1541], [101.84183, 3.15371], [101.84168, 3.15353], [101.84158, 3.15329], [101.84153, 3.15299], [101.84153, 3.15266], [101.84151, 3.1523], [101.84146, 3.15195], [101.84138, 3.15157], [101.84132, 3.15121], [101.84113, 3.15081], [101.84087, 3.15046], [101.84062, 3.15015], [101.84044, 3.15004], [101.84026, 3.14991], [101.84019, 3.14973], [101.84016, 3.14952], [101.84021, 3.14922], [101.84028, 3.14892], [101.84031, 3.14872], [101.8403, 3.14848], [101.84022, 3.14826], [101.84009, 3.1481], [101.83995, 3.14796], [101.83983, 3.14786], [101.83976, 3.14776], [101.83972, 3.14762], [101.83968, 3.14732], [101.83967, 3.14721], [101.83968, 3.14695], [101.8397, 3.14663], [101.83954, 3.14615], [101.83935, 3.14578], [101.83922, 3.14557], [101.83906, 3.1453], [101.83897, 3.14507], [101.83895, 3.14492], [101.83895, 3.14477], [101.83901, 3.14447], [101.83914, 3.14418], [101.83923, 3.14405], [101.83934, 3.14392], [101.83953, 3.14371], [101.83975, 3.14349], [101.83985, 3.14328], [101.83992, 3.143], [101.84, 3.14268], [101.84022, 3.14218], [101.84028, 3.14203], [101.84034, 3.14182], [101.84037, 3.14165], [101.84038, 3.14155], [101.84038, 3.1414], [101.84033, 3.14108], [101.84007, 3.14076], [101.83962, 3.14059], [101.8395, 3.14047], [101.83932, 3.14027], [101.8392, 3.14009], [101.8391, 3.13989], [101.839, 3.13965], [101.83894, 3.13943], [101.83883, 3.13906], [101.83875, 3.1387], [101.83867, 3.13813], [101.83853, 3.13793], [101.83841, 3.13784], [101.83825, 3.13777], [101.83805, 3.13775], [101.83784, 3.13784], [101.83774, 3.13798], [101.83758, 3.13809], [101.83735, 3.13814], [101.8371, 3.1381], [101.8369, 3.138], [101.83673, 3.13782], [101.83656, 3.1376], [101.8364, 3.13746], [101.83619, 3.13735], [101.83592, 3.13733], [101.83579, 3.13742], [101.83568, 3.13738], [101.83556, 3.13725], [101.83545, 3.13705], [101.83534, 3.13688], [101.83515, 3.13677], [101.83491, 3.13671], [101.83476, 3.1367], [101.83441, 3.13672], [101.8342, 3.13668], [101.83405, 3.13658], [101.8339, 3.13644], [101.83379, 3.13629], [101.83365, 3.13609], [101.83353, 3.13582], [101.83305, 3.13503], [101.83293, 3.13472], [101.83288, 3.13448], [101.8329, 3.13425], [101.83297, 3.13407], [101.83311, 3.13383], [101.83325, 3.13356], [101.83339, 3.13329], [101.83348, 3.13299], [101.83353, 3.13268], [101.8335, 3.13242], [101.83344, 3.13219], [101.83334, 3.13198], [101.83321, 3.13177], [101.83311, 3.13165], [101.83302, 3.13145], [101.83296, 3.13123], [101.83292, 3.13109], [101.83293, 3.13097], [101.83298, 3.1309], [101.8331, 3.13087], [101.83321, 3.13086], [101.83339, 3.13088], [101.83356, 3.13092], [101.83372, 3.13098], [101.83393, 3.131], [101.83415, 3.13095], [101.83433, 3.13087], [101.83455, 3.13067], [101.83494, 3.13044], [101.83505, 3.13029], [101.83505, 3.1302], [101.835, 3.13013], [101.83476, 3.13005], [101.83453, 3.12992], [101.83434, 3.12975], [101.83421, 3.12953], [101.83411, 3.12928], [101.83408, 3.12901], [101.83399, 3.12876], [101.83392, 3.12853], [101.83389, 3.12834], [101.83387, 3.12817], [101.83378, 3.12811], [101.83368, 3.12808], [101.83311, 3.12803], [101.83253, 3.12806], [101.83242, 3.12815], [101.83231, 3.12821], [101.83219, 3.12819], [101.83193, 3.1278], [101.83157, 3.12736], [101.83123, 3.12693], [101.83102, 3.12678], [101.83077, 3.12663], [101.83019, 3.12652], [101.83005, 3.1265], [101.82992, 3.12652], [101.82979, 3.12656], [101.82968, 3.12661], [101.82939, 3.12652], [101.82906, 3.1264], [101.82877, 3.12626], [101.82847, 3.12612], [101.82798, 3.1261], [101.8269, 3.12589], [101.82619, 3.12582], [101.82547, 3.12581], [101.82526, 3.12564], [101.8252, 3.12556], [101.82518, 3.12543], [101.82527, 3.12516], [101.82542, 3.12495], [101.82562, 3.12474], [101.82576, 3.1246], [101.82581, 3.12443], [101.82587, 3.1242], [101.82589, 3.1239], [101.82591, 3.1236], [101.82596, 3.1233], [101.82599, 3.12307], [101.82594, 3.12286], [101.82585, 3.12265], [101.82576, 3.12248], [101.82571, 3.12231], [101.82565, 3.12222], [101.82577, 3.12196], [101.82582, 3.12174], [101.82583, 3.12156], [101.82582, 3.12113], [101.8258, 3.12091], [101.82581, 3.1207], [101.82577, 3.12041], [101.82571, 3.1203], [101.82563, 3.12023], [101.8255, 3.12021], [101.82539, 3.12021], [101.8251, 3.12024], [101.82496, 3.1202], [101.82482, 3.12013], [101.8247, 3.12002], [101.8246, 3.11989], [101.82452, 3.11974], [101.82448, 3.1196], [101.82444, 3.11942], [101.82435, 3.11926], [101.82416, 3.11896], [101.82404, 3.11865], [101.82396, 3.1183], [101.82385, 3.11815], [101.82371, 3.11808], [101.82353, 3.11812], [101.8234, 3.11818], [101.82327, 3.11827], [101.82316, 3.11835], [101.82303, 3.11846], [101.82287, 3.11852], [101.82279, 3.11855], [101.82256, 3.11856], [101.82233, 3.11854], [101.82205, 3.1184], [101.82185, 3.11822], [101.82173, 3.11807], [101.82163, 3.1179], [101.82146, 3.11768], [101.82133, 3.11745], [101.82125, 3.11735], [101.82105, 3.11713], [101.82091, 3.11701], [101.82077, 3.11692], [101.82048, 3.11673], [101.82036, 3.11665], [101.82026, 3.11652], [101.82019, 3.11637], [101.82013, 3.1163], [101.82012, 3.11623], [101.82007, 3.11613], [101.82003, 3.116], [101.82003, 3.11587], [101.82003, 3.11573], [101.82005, 3.11563], [101.82005, 3.11555], [101.82004, 3.11548], [101.82001, 3.11524], [101.81992, 3.11501], [101.8199, 3.1148], [101.81993, 3.11459], [101.82012, 3.11426], [101.82044, 3.11404], [101.82052, 3.11395], [101.82056, 3.11382], [101.82054, 3.11367], [101.82047, 3.11355], [101.82042, 3.11345], [101.82039, 3.11337], [101.82038, 3.11322], [101.82038, 3.11311], [101.82035, 3.11297], [101.8203, 3.11286], [101.82016, 3.11279], [101.81994, 3.11275], [101.81972, 3.11266], [101.81954, 3.1125], [101.81948, 3.11239], [101.81948, 3.11226], [101.8195, 3.11199], [101.81949, 3.11164], [101.81943, 3.11138], [101.81929, 3.11125], [101.81919, 3.11114], [101.81903, 3.11101], [101.81884, 3.11094], [101.81861, 3.11099], [101.81848, 3.11112], [101.81838, 3.11134], [101.81841, 3.11147], [101.81842, 3.11177], [101.81832, 3.11191], [101.81818, 3.1121], [101.8181, 3.11222], [101.81797, 3.11226], [101.8178, 3.11228], [101.81763, 3.11225], [101.81745, 3.11221], [101.81732, 3.11213], [101.8172, 3.11204], [101.81711, 3.11187], [101.81696, 3.11168], [101.81689, 3.1115], [101.81681, 3.11115], [101.81671, 3.1104], [101.81661, 3.11014], [101.81635, 3.10984], [101.81612, 3.10962], [101.81581, 3.10933], [101.81562, 3.10906], [101.81533, 3.10872], [101.81511, 3.10856], [101.81487, 3.10841], [101.81461, 3.1083], [101.81447, 3.10834], [101.81441, 3.10846], [101.8143, 3.10863], [101.8142, 3.10874], [101.81384, 3.10883], [101.81362, 3.10877], [101.81337, 3.10859], [101.81317, 3.10841], [101.81299, 3.10818], [101.81282, 3.10812], [101.8125, 3.10814], [101.81233, 3.10823], [101.81223, 3.10825], [101.81213, 3.1082], [101.81205, 3.10797], [101.81188, 3.10728], [101.81167, 3.10692], [101.81154, 3.10655], [101.81123, 3.10621], [101.81088, 3.10587], [101.81051, 3.10536], [101.81025, 3.10492], [101.81008, 3.10465], [101.80986, 3.10433], [101.80976, 3.10409], [101.80965, 3.10368], [101.80958, 3.10283], [101.80945, 3.10237], [101.80942, 3.10208], [101.80939, 3.10182], [101.80939, 3.10163], [101.80939, 3.10138], [101.80934, 3.10115], [101.80927, 3.10091], [101.80914, 3.10069], [101.80903, 3.10035], [101.80892, 3.10017], [101.80883, 3.09987], [101.80875, 3.09957], [101.80861, 3.0993], [101.80846, 3.09921], [101.80837, 3.09904], [101.8081, 3.09862], [101.80795, 3.09841], [101.80747, 3.09808], [101.80724, 3.09793], [101.80701, 3.09785], [101.80682, 3.09778], [101.80654, 3.09774], [101.80622, 3.09779], [101.80592, 3.0978], [101.80559, 3.0978], [101.80527, 3.09762], [101.80487, 3.09743], [101.80437, 3.09734], [101.80388, 3.09722], [101.80349, 3.09708], [101.80312, 3.0969], [101.8029, 3.0968], [101.80273, 3.09665], [101.80256, 3.09641], [101.80245, 3.09622], [101.80235, 3.09613], [101.80218, 3.09608], [101.80166, 3.09608], [101.8012, 3.09605], [101.80083, 3.09605], [101.80048, 3.09592], [101.79994, 3.09555], [101.79952, 3.09527], [101.79933, 3.09512], [101.79907, 3.09493], [101.79876, 3.09463], [101.79837, 3.09431], [101.79798, 3.09403], [101.79767, 3.09368], [101.7975, 3.0933], [101.79746, 3.09324], [101.79744, 3.09315], [101.79749, 3.09304], [101.79757, 3.09298], [101.79763, 3.09291], [101.79761, 3.09283], [101.79773, 3.09267], [101.79779, 3.0925], [101.79784, 3.09224], [101.79789, 3.09222], [101.79795, 3.09209], [101.79793, 3.09204], [101.79802, 3.09189], [101.79804, 3.09184], [101.79802, 3.09169], [101.79792, 3.0916], [101.79789, 3.09148], [101.79791, 3.09139], [101.79793, 3.09125], [101.79794, 3.09109], [101.79789, 3.09097], [101.79775, 3.09076], [101.79754, 3.09048], [101.79737, 3.09021], [101.79714, 3.0898], [101.79694, 3.08963], [101.79667, 3.08947], [101.79643, 3.08933], [101.79633, 3.08927], [101.7962, 3.0891], [101.79614, 3.08894], [101.79612, 3.08877], [101.79621, 3.08843], [101.79613, 3.08809], [101.79599, 3.08781], [101.79604, 3.08733], [101.79603, 3.08714], [101.79595, 3.08701], [101.7957, 3.08693], [101.79538, 3.0869], [101.7951, 3.08682], [101.79486, 3.0867], [101.7948, 3.0866], [101.79476, 3.08643], [101.79478, 3.08629], [101.79482, 3.08613], [101.79511, 3.08539], [101.79517, 3.0851], [101.79518, 3.08484], [101.7951, 3.08466], [101.79497, 3.08445], [101.79478, 3.08418], [101.79432, 3.08393], [101.79411, 3.08376], [101.79386, 3.08346], [101.79376, 3.08318], [101.79361, 3.08273], [101.79331, 3.08196], [101.79296, 3.08162], [101.79251, 3.08137], [101.79238, 3.08116], [101.7922, 3.08077], [101.79169, 3.08036], [101.79128, 3.07999], [101.79099, 3.07959], [101.79081, 3.07954], [101.79062, 3.07951], [101.79041, 3.07953], [101.79021, 3.07945], [101.79012, 3.07936], [101.79011, 3.07918], [101.79011, 3.07877], [101.79016, 3.07852], [101.79029, 3.07826], [101.79066, 3.07785], [101.79086, 3.07754], [101.79092, 3.0773], [101.79093, 3.07705], [101.79084, 3.07688], [101.79066, 3.07673], [101.78996, 3.07653], [101.78961, 3.07633], [101.78943, 3.0762], [101.78924, 3.07595], [101.78897, 3.07568], [101.78877, 3.07555], [101.78845, 3.07536], [101.78809, 3.07527], [101.78753, 3.07502], [101.7872, 3.07473], [101.78719, 3.07464], [101.78721, 3.07455], [101.78724, 3.07446], [101.78729, 3.07438], [101.78832, 3.07425], [101.7884, 3.0742], [101.78847, 3.07411], [101.78846, 3.07401], [101.78842, 3.07391], [101.78822, 3.07364], [101.78807, 3.07339], [101.78801, 3.07313], [101.78796, 3.07293], [101.78796, 3.07273], [101.78799, 3.07255], [101.78802, 3.07238], [101.788, 3.07219], [101.78795, 3.07199], [101.78799, 3.07171], [101.78783, 3.07154], [101.78753, 3.07142], [101.78713, 3.07117], [101.78694, 3.07103], [101.78688, 3.0708], [101.78673, 3.0706], [101.78656, 3.07043], [101.78649, 3.07024], [101.78654, 3.07002], [101.78659, 3.06978], [101.7865, 3.06946], [101.78629, 3.06904], [101.78614, 3.06861], [101.786, 3.0683], [101.78586, 3.06811], [101.78564, 3.06782], [101.78547, 3.06756], [101.78514, 3.067], [101.78496, 3.06667], [101.78485, 3.06632], [101.78481, 3.06613], [101.78479, 3.06576], [101.78477, 3.0656], [101.78472, 3.06534], [101.78469, 3.06523], [101.78466, 3.06515], [101.78455, 3.06507], [101.78442, 3.06501], [101.78425, 3.06491], [101.7841, 3.06486], [101.78397, 3.0649], [101.78387, 3.06495], [101.78373, 3.06491], [101.78339, 3.06489], [101.78325, 3.06487], [101.78308, 3.06482], [101.78294, 3.06473], [101.78267, 3.06453], [101.78257, 3.06447], [101.78245, 3.06443], [101.78234, 3.06441], [101.78214, 3.06444], [101.78191, 3.06451], [101.78172, 3.06453], [101.78159, 3.06454], [101.78145, 3.06452], [101.78129, 3.06448], [101.78115, 3.06442], [101.78104, 3.06436], [101.78094, 3.0643], [101.78085, 3.06422], [101.78081, 3.06416], [101.78079, 3.06407], [101.78079, 3.06399], [101.78082, 3.06391], [101.78088, 3.06384], [101.78097, 3.06373], [101.78105, 3.06368], [101.78114, 3.06361], [101.78122, 3.06353], [101.78127, 3.06342], [101.78128, 3.06331], [101.78128, 3.06315], [101.78132, 3.0629], [101.78151, 3.06205], [101.78153, 3.06198], [101.78158, 3.06187], [101.78181, 3.0615], [101.78191, 3.06132], [101.78194, 3.06125], [101.78196, 3.06119], [101.78199, 3.06111], [101.78198, 3.06102], [101.78197, 3.06095], [101.78195, 3.06088], [101.78193, 3.06083], [101.78188, 3.06081], [101.7818, 3.06077], [101.78167, 3.06066], [101.78143, 3.06041], [101.78129, 3.06021], [101.78116, 3.06011], [101.781, 3.06], [101.78084, 3.05993], [101.78071, 3.05991], [101.78058, 3.0599], [101.78047, 3.05991], [101.78036, 3.05994], [101.78021, 3.06004], [101.78009, 3.06008], [101.77997, 3.06009], [101.77987, 3.06007], [101.77977, 3.06002], [101.77968, 3.05997], [101.77961, 3.05989], [101.77958, 3.05977], [101.77954, 3.05963], [101.77949, 3.05942], [101.77947, 3.05924], [101.77947, 3.05913], [101.77948, 3.05902], [101.77951, 3.05893], [101.77958, 3.0588], [101.77981, 3.05854], [101.78001, 3.05834], [101.7801, 3.05824], [101.78017, 3.05814], [101.78026, 3.05796], [101.78031, 3.05786], [101.78033, 3.05775], [101.78031, 3.0576], [101.78025, 3.05745], [101.7802, 3.05734], [101.78012, 3.05719], [101.78009, 3.05707], [101.78006, 3.05688], [101.78007, 3.05675], [101.78012, 3.05661], [101.78017, 3.05652], [101.78028, 3.05634], [101.78031, 3.05622], [101.78032, 3.0561], [101.78032, 3.05598], [101.78031, 3.05586], [101.7802, 3.05549], [101.78016, 3.0553], [101.78015, 3.05502], [101.78021, 3.05469], [101.78027, 3.0545], [101.78028, 3.05415], [101.78031, 3.05326], [101.78015, 3.0528], [101.7801, 3.0524], [101.77983, 3.05171], [101.77964, 3.05135], [101.77936, 3.05075], [101.77929, 3.05047], [101.77891, 3.04979], [101.7788, 3.04963], [101.77848, 3.04926], [101.77823, 3.04904], [101.77791, 3.04877], [101.77767, 3.04857], [101.77713, 3.04778], [101.77693, 3.0475], [101.7769, 3.04737], [101.77687, 3.04693], [101.7768, 3.0467], [101.77663, 3.0461], [101.77646, 3.04573], [101.77616, 3.04492], [101.77595, 3.04427], [101.77562, 3.04368], [101.77558, 3.04345], [101.77557, 3.04327], [101.77556, 3.04289], [101.77548, 3.04269], [101.77505, 3.04207], [101.77435, 3.04104], [101.77398, 3.04087], [101.77221, 3.04002], [101.77205, 3.03986], [101.77159, 3.03904], [101.77119, 3.03854], [101.77077, 3.03794], [101.77044, 3.03765], [101.77033, 3.03736], [101.76987, 3.03599], [101.76974, 3.03488], [101.76963, 3.03442], [101.76939, 3.03409], [101.76915, 3.03347], [101.76875, 3.03237], [101.76844, 3.03163], [101.7682, 3.03098], [101.76805, 3.03063], [101.76796, 3.03025], [101.76791, 3.02993], [101.76791, 3.02983], [101.76793, 3.02971], [101.768, 3.02956], [101.76803, 3.02945], [101.76801, 3.02928], [101.76798, 3.02901], [101.76795, 3.02855], [101.76795, 3.0283], [101.76796, 3.02799], [101.76816, 3.02701], [101.76817, 3.02625], [101.76825, 3.0256], [101.76849, 3.02515], [101.76894, 3.02453], [101.77004, 3.02191], [101.77008, 3.02175], [101.77005, 3.02152], [101.76958, 3.01976], [101.76956, 3.01964], [101.76952, 3.01929], [101.76952, 3.01915], [101.76957, 3.01882], [101.76964, 3.01865], [101.76971, 3.01833], [101.76978, 3.01795], [101.76986, 3.01664], [101.76989, 3.01622], [101.7701, 3.01509], [101.7706, 3.01251], [101.77069, 3.01196], [101.77072, 3.01137], [101.77092, 3.01061], [101.77103, 3.01041], [101.77162, 3.00862], [101.77199, 3.008], [101.77236, 3.00728], [101.77242, 3.00692], [101.77251, 3.00593]]}}, {"type": "Feature", "properties": {"name": "Sungai Langat", "osm_id": 576233371, "waterway": "river", "width": null}, "geometry": {"type": "LineString", "coordinates": [[101.76452, 2.92451], [101.76417, 2.92446], [101.76354, 2.9242], [101.76296, 2.92352], [101.76274, 2.92272], [101.76235, 2.92178], [101.76197, 2.92115], [101.76115, 2.92037], [101.75939, 2.91847], [101.75839, 2.91768], [101.75671, 2.91801], [101.75605, 2.91798], [101.75543, 2.91787], [101.75486, 2.91739], [101.75468, 2.91699], [101.75473, 2.91671], [101.75498, 2.91615], [101.755, 2.91604], [101.75493, 2.91498], [101.75466, 2.91358], [101.7544, 2.9118], [101.75417, 2.91098], [101.75347, 2.91018], [101.75238, 2.90943], [101.75084, 2.90875], [101.74789, 2.90607], [101.74739, 2.90595], [101.74636, 2.90598], [101.74565, 2.9059], [101.74446, 2.90532], [101.74334, 2.90495], [101.74281, 2.90482], [101.74256, 2.90459], [101.74231, 2.90358]]}}, {"type": "Feature", "properties": {"name": "Sungai Langat", "osm_id": 576239840, "waterway": "river", "width": null}, "geometry": {"type": "LineString", "coordinates": [[101.53794, 2.81255], [101.53788, 2.81226], [101.53718, 2.81173], [101.53572, 2.81113], [101.53551, 2.81098], [101.5344, 2.81017], [101.53307, 2.80883], [101.53209, 2.80714], [101.53133, 2.80678], [101.53067, 2.80721], [101.53007, 2.80857], [101.52947, 2.80934], [101.52772, 2.81039], [101.52665, 2.8114], [101.52548, 2.81345], [101.52467, 2.81476], [101.52291, 2.81531], [101.51935, 2.81475]]}}, {"type": "Feature", "properties": {"name": "Sungai Langat", "osm_id": 576239843, "waterway": "river", "width": null}, "geometry": {"type": "LineString", "coordinates": [[101.5523, 2.81866], [101.5505, 2.81922], [101.54843, 2.81931], [101.54719, 2.81891]]}}, {"type": "Feature", "properties": {"name": "Sungai Langat", "osm_id": 576239846, "waterway": "river", "width": null}, "geometry": {"type": "LineString", "coordinates": [[101.56422, 2.81845], [101.56309, 2.8197], [101.56283, 2.82053], [101.56303, 2.82133], [101.56353, 2.82241], [101.56404, 2.82302], [101.56458, 2.82409], [101.56468, 2.82478], [101.5644, 2.82541], [101.5637, 2.82578], [101.56317, 2.82564], [101.56276, 2.82521], [101.56234, 2.82425], [101.56197, 2.82168], [101.56147, 2.82091], [101.56067, 2.82001], [101.55989, 2.81953], [101.55799, 2.81825], [101.55752, 2.81776]]}}, {"type": "Feature", "properties": {"name": "Sungai Langat", "osm_id": 643966604, "waterway": "river", "width": null}, "geometry": {"type": "LineString", "coordinates": [[101.44217, 2.86694], [101.44072, 2.8668], [101.43819, 2.86633], [101.43492, 2.86521], [101.43188, 2.86502], [101.42854, 2.86559], [101.42591, 2.86543], [101.42347, 2.86383], [101.42248, 2.86213], [101.42204, 2.85955], [101.42215, 2.85733], [101.42277, 2.85537], [101.42351, 2.85046], [101.42296, 2.84834], [101.42255, 2.84787], [101.42149, 2.84712], [101.41956, 2.8468], [101.41655, 2.84712], [101.41466, 2.847], [101.4136, 2.84568], [101.41363, 2.8426], [101.41347, 2.84026], [101.41222, 2.83869], [101.41124, 2.83709], [101.4106, 2.83481], [101.41062, 2.83377], [101.4108, 2.83279], [101.41121, 2.83168], [101.41202, 2.83014], [101.4131, 2.82872], [101.41382, 2.82766], [101.41435, 2.82649], [101.41469, 2.82421], [101.4143, 2.8216], [101.41347, 2.81656], [101.41341, 2.81265], [101.41315, 2.80919], [101.41267, 2.80659], [101.41192, 2.80451], [101.41113, 2.80374], [101.40962, 2.80293], [101.40468, 2.80171]]}}, {"type": "Feature", "properties": {"name": "Sungai Langat", "osm_id": 643966605, "waterway": "river", "width": null}, "geometry": {"type": "LineString", "coordinates": [[101.44217, 2.86694], [101.44242, 2.86835], [101.44362, 2.87482], [101.4449, 2.87876], [101.44608, 2.88095], [101.44771, 2.88246], [101.4508, 2.88347], [101.45162, 2.88401], [101.45234, 2.88486], [101.45286, 2.88584], [101.4531, 2.887], [101.4519, 2.89452], [101.45092, 2.89586], [101.44961, 2.8964], [101.44725, 2.896], [101.44592, 2.89618], [101.44429, 2.89726], [101.44062, 2.89883], [101.43724, 2.89918], [101.43506, 2.8997], [101.4339, 2.90086], [101.43123, 2.90551], [101.43006, 2.90686], [101.42932, 2.9072], [101.42826, 2.90754], [101.42699, 2.90745], [101.42571, 2.907], [101.42472, 2.90626], [101.42405, 2.90468], [101.42416, 2.90322], [101.42484, 2.90152], [101.42673, 2.90001], [101.4298, 2.8986], [101.43106, 2.89775], [101.43158, 2.89677], [101.43151, 2.8956], [101.43137, 2.8946], [101.43076, 2.89312], [101.42974, 2.89218], [101.42806, 2.891], [101.4266, 2.88988], [101.42586, 2.88869], [101.42564, 2.88809], [101.42556, 2.88643], [101.42638, 2.88398], [101.42749, 2.88078], [101.42749, 2.87847], [101.42732, 2.87702], [101.42675, 2.8761], [101.42562, 2.87499], [101.42471, 2.87466], [101.42345, 2.87458], [101.42218, 2.87485], [101.42073, 2.87548], [101.41972, 2.8767], [101.41912, 2.87802], [101.41911, 2.87929], [101.41972, 2.88108], [101.42044, 2.88316], [101.42035, 2.88437], [101.41991, 2.88559], [101.41782, 2.88744], [101.41387, 2.8894], [101.41203, 2.89108], [101.41121, 2.89258], [101.41106, 2.89393], [101.41143, 2.896], [101.41393, 2.89958], [101.41634, 2.90277], [101.41865, 2.90624], [101.419, 2.90722], [101.4201, 2.91025], [101.42081, 2.91147], [101.42221, 2.91244], [101.42374, 2.91257], [101.42854, 2.91205], [101.4296, 2.91231], [101.43108, 2.91339], [101.43118, 2.9148], [101.4313, 2.91676], [101.43063, 2.91911], [101.42592, 2.92782], [101.42523, 2.9296], [101.4244, 2.9308], [101.42266, 2.93145], [101.42042, 2.93163], [101.41507, 2.9307], [101.4105, 2.93027], [101.4084, 2.9309], [101.40638, 2.93209], [101.405, 2.93465], [101.40499, 2.93634], [101.40629, 2.93898], [101.40869, 2.94064], [101.41146, 2.9415], [101.41462, 2.94236], [101.41674, 2.94353], [101.4187, 2.94546], [101.42103, 2.94961], [101.42347, 2.95321], [101.42509, 2.95447], [101.42853, 2.95601], [101.43252, 2.95746], [101.43793, 2.95916], [101.43907, 2.96077], [101.43943, 2.96261], [101.4389, 2.9646], [101.43814, 2.96557], [101.43707, 2.96693], [101.43059, 2.97203], [101.42692, 2.97492], [101.42354, 2.97693], [101.4197, 2.97812], [101.41638, 2.97782], [101.41443, 2.97739], [101.41273, 2.9766], [101.41143, 2.97559], [101.40956, 2.97364], [101.40808, 2.96796], [101.40588, 2.95614], [101.40508, 2.95435], [101.40366, 2.9521], [101.40148, 2.95003], [101.39917, 2.94818], [101.39261, 2.94501], [101.39098, 2.94373], [101.38965, 2.94231], [101.3885, 2.94033], [101.38795, 2.93872], [101.38739, 2.936], [101.38784, 2.92371], [101.38701, 2.91978], [101.3865, 2.91757], [101.3862, 2.91663], [101.38566, 2.91497], [101.38414, 2.91187], [101.38253, 2.90859], [101.38155, 2.90741], [101.38043, 2.90624], [101.37882, 2.90486], [101.37759, 2.90402], [101.3757, 2.90361], [101.37325, 2.90337], [101.37103, 2.90367], [101.36784, 2.9051], [101.36483, 2.90687], [101.36231, 2.909], [101.35527, 2.91778], [101.35346, 2.92484], [101.35219, 2.92981]]}}, {"type": "Feature", "properties": {"name": "Sungai Langat", "osm_id": 643966606, "waterway": "river", "width": null}, "geometry": {"type": "LineString", "coordinates": [[101.4821, 2.88797], [101.48078, 2.88755], [101.47976, 2.88686], [101.47886, 2.88545], [101.47746, 2.88344], [101.47655, 2.88166], [101.47603, 2.8802], [101.47529, 2.87874], [101.47462, 2.87803], [101.47384, 2.87786], [101.47325, 2.87796], [101.47278, 2.87834], [101.47254, 2.87861], [101.47222, 2.87946], [101.47219, 2.88046], [101.47239, 2.88131], [101.47385, 2.88409], [101.47465, 2.88616], [101.47488, 2.88752], [101.47485, 2.88879], [101.47458, 2.88948], [101.47416, 2.89008], [101.47377, 2.8904], [101.47357, 2.89048], [101.47332, 2.89056], [101.47276, 2.89059], [101.472, 2.89047], [101.47068, 2.8899], [101.46885, 2.88835], [101.46653, 2.88692], [101.46087, 2.88449], [101.45754, 2.88293], [101.4541, 2.88201], [101.4524, 2.88162], [101.45161, 2.88098], [101.45065, 2.87983], [101.45023, 2.87882], [101.45017, 2.87745], [101.45064, 2.87625], [101.45106, 2.87491], [101.4509, 2.87355], [101.4469, 2.86862], [101.44462, 2.86719], [101.44287, 2.86701], [101.44217, 2.86694]]}}, {"type": "Feature", "properties": {"name": "Sungai Langat", "osm_id": 750330554, "waterway": "river", "width": null}, "geometry": {"type": "LineString", "coordinates": [[101.5878, 2.80276], [101.58829, 2.80367], [101.58892, 2.80501], [101.58895, 2.80566], [101.58869, 2.80631], [101.58782, 2.80819], [101.58691, 2.80937], [101.58585, 2.81053], [101.58507, 2.81152], [101.58451, 2.81179], [101.58353, 2.81228]]}}, {"type": "Feature", "properties": {"name": "Sungai Langat", "osm_id": 750330555, "waterway": "river", "width": null}, "geometry": {"type": "LineString", "coordinates": [[101.5763, 2.81717], [101.5735, 2.81854], [101.57221, 2.81879], [101.57095, 2.81879]]}}, {"type": "Feature", "properties": {"name": "Sungai Langat", "osm_id": 750330557, "waterway": "river", "width": null}, "geometry": {"type": "LineString", "coordinates": [[101.57095, 2.81879], [101.57015, 2.81801], [101.57014, 2.81731], [101.57097, 2.81612], [101.57098, 2.81538], [101.5697, 2.81311], [101.56892, 2.81146], [101.56859, 2.81108], [101.56795, 2.8109], [101.5673, 2.81151], [101.56694, 2.81241], [101.56728, 2.81336], [101.56777, 2.81444], [101.56791, 2.81517], [101.56777, 2.81574], [101.56694, 2.81662], [101.56595, 2.81751], [101.56422, 2.81845]]}}]}